,routeid,created_utc,activitytype,latitude,longitude,distance_m,n_points,zipcode
0,449a745e86c38e9698989056657d56c9,01:31.1,Running,42.34645,-71.11662,8210.279058,65,2446
1,cfaecfc929176355f0f82fe3241e44f8,25:49.8,Running,42.3332,-71.11876,4919.185808,44,2445
2,62725abe1653104ff8403759713ebb4a,26:34.5,Running,42.3332,-71.11876,8126.535389,64,2445
3,9cf8dab40a4a5f1f48797d3dcc9fbc0f,50:24.5,Running,42.3332,-71.11876,3219.928603,34,2445
4,c3ee571a8b367a418afdb1ae520e10aa,09:24.7,Running,42.34512,-71.1186,10383.88258,127,2446
5,ee151209bfe4b9e8a9a9b45158c34705,53:45.1,Running,42.36165,-71.10355,4601.061246,64,2139
6,dc185e309115219fc732c13852dba904,21:31.9,Running,42.36229,-71.10759,7652.643296,49,2139
7,411afdc0e39698369055a46618705b9e,35:24.8,Running,42.36318,-71.05158,5271.013538,91,2110
8,b3b3935c6ad525cbdeb6a1a3e0c17475,44:25.2,Running,42.365572,-71.078132,4706.418197,54,2142
9,f6c6265d851df42fea88ec8fb5e898ee,56:26.5,Running,42.354764,-71.099916,4222.270995,114,2139
10,e9e9da5fff46775ce4f3c6f7a0593cf7,16:50.3,Running,42.354689,-71.100388,5501.806768,205,2139
11,660a7bac8415b8663dd8142b28a45554,28:34.0,Running,42.35727,-71.09263,4756.990063,175,2139
12,50d0a4c474304e87f93dc571ebc7f1c5,56:58.9,Running,42.39455,-71.12134,4954.43213,22,2144
13,bebb657b8029c9816abac4542c50155d,02:01.1,Running,42.34455,-71.03961,7558.95817,97,2210
14,987d64b5a2c948a8a1c125d500bf188d,02:52.6,Running,42.34414,-71.11438,3511.843318,44,2446
15,9db015cba6ee7a45e15a4b87163bc111,37:26.6,Running,42.342964,-71.094531,2655.32213,66,2115
16,9e0b32bba0b1976112890de1e9664f19,35:53.6,Walking,42.35702,-71.05255,2592.513327,59,2110
17,ae6a77d8785de59c20ab0ff7f49437df,37:53.1,Running,42.37557,-71.05924,1972.497005,39,2129
18,1776b634a2a28471db9a94ce84363598,40:53.1,Running,42.37425,-71.05893,3494.378108,43,2129
19,1c8f0632acb09730c05269d1dab25583,46:24.9,Running,42.37264,-71.0599,5042.996865,50,2129
20,ccb56a5c26cec8a7d583377da0384ccb,42:57.8,Running,42.3306,-71.10851,1654.218988,25,2120
21,1f430d82e7713662ffdc2f0f776a1eec,35:17.8,Running,42.34286,-71.09702,3230.582662,58,2215
22,f54b781e6b80e95362fca723e8187ecb,03:37.7,Running,42.362303,-71.107678,10608.64448,59,2139
23,059a2fc45bf40852f404e763bda7655a,37:08.5,Running,42.356964,-71.09267,6437.289809,172,2139
24,61019c2444f00da2085dd40d84032768,57:49.7,Running,42.359576,-71.070101,2393.10147,26,2114
25,178f647e3784bf7663f0b9c9504c708e,02:17.7,Running,42.360151,-71.053374,1526.766762,19,2109
26,c44d0b6e0c2632fc969ed0ce4964f8a4,05:20.5,Running,42.360258,-71.06995,2013.310736,21,2114
27,f92d2099c2d6245fc4ea8bf781f7a0a4,08:35.3,Running,42.36159,-71.078705,4893.403865,11,2142
28,29b0b9e49cb144cccb108f8070317658,25:26.6,Running,42.362757,-71.089938,4330.906696,14,2141
29,007cfd3b07c01f6183e42337236ab92d,26:22.8,Running,42.365896,-71.089144,2697.371781,10,2141
30,5659604bceea7a08d655939426e27be4,33:00.8,Running,42.345154,-71.116842,12785.59054,56,2446
31,4c079402afd683ce916adaa9e8c250dd,41:36.0,Running,42.362772,-71.060887,8688.878148,182,2114
32,539b40d2cd9511fdff012f3e1872547b,37:57.5,Running,42.294862,-71.159566,8121.786048,42,2132
33,93dfd391c60c61dd0bc691eb21564719,56:26.4,Running,42.343688,-71.142567,7558.403603,37,2135
34,b51ac67a93812746176ced7a9cfa2a9d,59:32.5,Running,42.34847,-71.140021,4048.508286,36,2135
35,9a64322213e094ffcd534c6289bd4715,19:04.4,Running,42.363609,-71.051083,3308.322036,26,2110
36,5b5cb9f6480575faefc8e5e7dfed7369,55:09.6,Running,42.354791,-71.100084,7411.478149,148,2139
37,8177df4485c95074666e9d5091a303a8,05:57.9,Running,42.336776,-71.154641,2417.509314,21,2135
38,0f72ea5e150e8388b4e88a2e120f958f,37:25.6,Running,42.33814,-71.13968,6443.638971,24,2445
39,ea40fc6cc796f837b69e90ba9a65596d,39:44.7,Running,42.33814,-71.13968,6654.191338,30,2445
40,ab8fe282eba02843df14c6d456fe4910,42:08.2,Running,42.33814,-71.13968,5265.844517,43,2445
41,4247779c72f79913ac0155632e40a2be,07:22.0,Running,42.34414,-71.11438,4935.526651,59,2446
42,ac6022fb608e18635f2f526bdc30e6b3,13:20.8,Running,42.367146,-71.124708,8804.750998,31,2163
43,65afad9fde73730d9cb665d65eb684b4,36:10.7,Walking,42.349382,-71.088802,16172.77895,35,2215
44,8eb3087d0c90070997ed188eb4b3aac1,51:03.0,Running,42.341133,-71.126061,9683.900394,60,2446
45,048110a3a1c75d80ff9389607be26d67,23:12.1,Running,42.365396,-71.090873,17073.02535,67,2139
46,885beac11e3684d10d59c11f99f1bf12,59:15.6,Running,42.369107,-71.073138,6286.848651,64,2142
47,229434e742d5755371dbb4bcf4a1ed2a,09:06.6,Running,42.368905,-71.072856,11284.08516,111,2142
48,83e0ed8aba71b402797f00089a56a22b,50:25.4,Running,42.362503,-71.060586,6405.774936,152,2114
49,54df3ab8be8c69f18fa0130972211cd9,59:48.0,Running,42.34104,-71.11752,6052.744718,49,2446
50,8deffa9a448e837dd0e60a48e125f6ab,50:39.0,Running,42.344699,-71.118823,12258.16857,103,2446
51,6490ab316f3f6570369ace0217835919,54:04.7,Running,42.341455,-71.124542,6838.358182,33,2446
52,1ad375987747b080ef7f8b665e00992f,55:39.1,Running,42.344025,-71.114757,6852.557661,21,2446
53,f4db2196beb0a6512dd74c6b747156f1,17:41.6,Running,42.35341,-71.05758,4060.168621,54,2110
54,ea746170532ef0a5fe5b5f155b77d0c6,08:46.6,Running,42.34144,-71.1246,11553.48203,114,2446
55,11d723011d74de24cc8c16290695ac59,39:30.3,Running,42.350552,-71.110924,8140.923358,20,2215
56,d833b6c12796c7e753c3f0e4652286f8,53:11.6,Running,42.318957,-71.053519,10497.60227,108,2125
57,100568511a6fcf1129c631addc0b467a,29:08.9,Running,42.35087,-71.08941,5009.958388,49,2115
58,5d44a879809eaa724d4466f307773b96,42:12.0,Running,42.33815,-71.013004,7131.323333,28,2127
59,b16f4ed44e9f8987579d509350ac7b1e,12:45.3,Running,42.340442,-71.113006,5694.623525,93,2446
60,6df68db2f2b432ee1d6a6d178b5bee95,18:59.5,Running,42.34014,-71.081003,8425.947568,122,2118
61,faa77ef659d64dc32c302ba2108fa759,35:44.5,Running,42.340529,-71.113806,7608.231727,140,2446
62,28168a15779d45b07cb324691d2a222f,36:42.2,Running,42.34704,-71.140675,7965.074367,114,2135
63,cb1253bf2e973eb5acb6da7181ce19df,09:46.2,Running,42.347928,-71.138572,7883.103159,120,2135
64,5496d5d965200c6b7eef094214cb47e4,30:29.1,Running,42.347136,-71.116465,19308.67535,48,2446
65,871d35159fcee7712566a750b8024d23,01:55.1,Cycling,42.330547,-71.041294,7284.574217,46,2127
66,a0ba123c3a4cf247b86d770df03a89ab,28:02.3,Running,42.338488,-71.189076,5095.218116,51,2459
67,7628f592a62b474d7c13adfcd06b0c09,35:40.7,Running,42.336335,-71.18936,8703.089355,103,2459
68,59ed0cfd2861db36b85a42fac2bfab06,06:07.3,Running,42.350707,-71.075275,6766.138076,34,2116
69,36bc3ab0051ec703fe1ab5491b627069,20:19.8,Running,42.374485,-71.164957,3303.948126,105,2472
70,ac1e4cba29522f7857fa497910c1181a,28:59.5,Running,42.376935,-71.164944,4802.475487,126,2472
71,78183bcdd2239e8a14df2e6e8067207a,36:33.5,Running,42.376122,-71.165225,7845.486722,144,2472
72,bfe18a64e76c6f64a412560846145dd3,42:13.5,Cycling,42.330448,-71.046276,13081.02509,68,2127
73,b8f8dcb9a8bbf0aeb0866a4721e2cb6a,18:31.9,Running,42.33761,-71.02231,2869.348373,25,2127
74,b2bdc2714e8670a50116a7f4112f84b2,19:23.5,Running,42.290276,-71.071832,7827.86628,17,2124
75,2f6ca001784cb3057fc8596047b0a9d6,40:15.9,Running,42.33396,-71.035397,6543.200769,13,2127
76,bd31cdfca1761874b652698003bd8554,42:05.5,Running,42.374462,-71.165022,9476.998702,290,2472
77,f7e5a1e6bb7af3de71f1514dc405b4df,13:04.7,Running,42.347245,-71.140702,6359.279542,185,2135
78,4cd71438bfc0042ce1a4b5b326f5896f,59:32.8,Running,42.336493,-71.03558,7383.874143,33,2127
79,d3b7860498d196ced6ee2604ada91439,45:44.8,Running,42.308304,-71.092549,4849.799394,41,2121
80,7fbb822df7a0d0fe95638dfec0e1c97b,31:24.7,Running,42.37697,-71.16486,6631.45916,116,2472
81,5edc1534da6bceeae19556f9974f82cd,30:28.2,Running,42.37697,-71.16485,13194.97475,217,2472
82,9e8a518cabf37d132bfef698f5135c1f,07:55.3,Running,42.37701,-71.16484,12958.36057,245,2472
83,713214395bdc7b2e6092638b83a97b63,15:47.2,Running,42.355957,-71.070974,1012.634543,3,2108
84,a24db6a22a216f68f3e9348b6c92a4b6,54:15.4,Cycling,42.33067,-71.035332,9207.696625,33,2127
85,b27fd63838b52c28144b9da33429a4e3,37:31.0,Running,42.361072,-71.099242,3514.037214,7,2139
86,82321480bf1bc0c78343792de932e9f5,38:34.3,Running,42.36104,-71.099242,3559.901531,11,2139
87,3435bd8f7bbe883313ae08535513ef4d,18:09.2,Running,42.27501,-71.17647,5018.139065,80,2026
88,23211d4c04cc5df9333e0a6836a4487a,35:49.3,Running,42.346276,-71.107154,12950.6061,36,2446
89,3f168d93f9e71d67f045582025d98ac5,29:19.7,Running,42.27167,-71.18063,1932.129698,34,2026
90,370262bfa9e81c2a3a43c3cb6d74166f,33:17.5,Running,42.34155,-71.125264,7469.13942,84,2446
91,84890792868159b78f94e9be611533f2,38:44.0,Running,42.35417,-71.07932,8465.78813,121,2116
92,1f7be26f106f37a1e9894d0f66f15138,34:45.3,Running,42.362442,-71.079042,3551.502292,13,2142
93,b62df8f0fe5e4b197c177aebaf02f8f5,26:42.6,Running,42.344944,-71.118705,24055.89491,113,2446
94,873bf067fb3f89ca034fb27cbda53957,25:40.0,Running,42.32555,-71.11545,2869.23919,87,2130
95,434539c6110b96c821bd4b0530ac0cee,41:03.4,Running,42.37511,-71.10251,7772.749534,149,2143
96,b214ae4c7147bdff7527abd940eb0935,56:23.7,Running,42.34199,-71.087411,2580.77808,74,2115
97,4f8dee8acec44381f63b821a5b799b29,03:42.0,Running,42.341974,-71.087422,5462.342427,71,2115
98,7a9bc2555413719407e700438b620b75,20:27.9,Running,42.34409,-71.11919,14473.43955,96,2446
99,5f76fd172d75d7dd62777e0d7817cfc5,23:38.2,Running,42.34149,-71.12437,8059.195033,124,2446
100,5fb58f6e5884e252c11ad766fba94fbf,11:24.4,Running,42.34167,-71.08786,3978.943596,72,2115
101,d7e1178460edb77d039df8d4fce4578f,20:33.0,Running,42.34167,-71.08786,8942.441946,101,2115
102,43d3a38288c2d0e9ccf098e35df036da,18:49.8,Running,42.34167,-71.08786,10396.9863,124,2115
103,6b4b073f18acedfe8fad2bdfa69a87b8,41:50.7,Running,42.362445,-71.168199,11567.1439,64,2472
104,e58285e040ae529eb8c927792c29acc3,38:54.4,Cycling,42.38916,-71.14601,3552.578443,61,2138
105,40fc6970cf4951b168d0a86362cc34b8,44:19.4,Cycling,42.38156,-71.11631,3466.615305,49,2138
106,503c247659835f7a378be6f22ae465ec,01:05.4,Running,42.38916,-71.14601,3502.755138,66,2138
107,807aa9d18fd4190c6cf633da89fdcc49,40:12.9,Running,42.34919,-71.04569,8136.060278,70,2210
108,0971bcdd724b008e1b6466d231fee565,50:03.1,Running,42.34733,-71.0759,7159.46633,132,2116
109,e40b66c9e7dd0d094155a3de9e2dea14,16:04.6,Running,42.34701,-71.07582,8422.22697,116,2116
110,a1ceb2d2f1f88d7e36332167b979b00f,19:40.4,Running,42.34781,-71.08586,7845.374287,106,2115
111,717b6886f3bb7e948e08a7a62fa2e36c,46:09.3,Running,42.34781,-71.08586,11490.35127,190,2115
112,043b214a947f94f0df7d36eea620533a,20:29.7,Running,42.34462,-71.03747,6139.944593,58,2210
113,65217b472ac5a0500fbbadea83f97ed3,30:44.4,Running,42.34427,-71.12964,6667.065382,110,2446
114,56784475da0e067e4419656810f7ef66,42:00.6,Running,42.38156,-71.11631,4042.311918,63,2138
115,827c642d32127e08ee8752c29d7488ae,10:07.7,Cycling,42.37298,-71.1198,3798.426343,52,2138
116,29e1a1861cbc9b0199d213b0460d032f,42:31.6,Running,42.27514,-71.17997,5126.087114,86,2026
117,a5e52d851f0d8b090faeb2bcfc2721c3,30:28.1,Running,42.34333,-71.03714,8902.372887,140,2210
118,5a9125b9391430276e069a50f9c74fe8,42:03.3,Running,42.347602,-71.102529,16139.80212,62,2215
119,452c50a31047f0c80198fa086a71103c,25:32.2,Running,42.366159,-71.069498,4569.331907,71,2114
120,77ab1a239d2c25ad45868995840668ab,32:33.2,Running,42.347855,-71.085818,6046.226189,47,2115
121,110830e6b01e365cc8f3894b159fb3f7,36:45.4,Running,42.34784,-71.085818,7853.494498,57,2115
122,e6cf070f0811d93644dd4d61f07210f1,46:03.1,Running,42.347895,-71.085577,10933.0036,197,2115
123,abadbc9f6248922750cb4ab4dd3e305b,28:46.3,Running,42.360338,-71.069925,5161.13981,54,2114
124,a10dbd54554727e55295888a4bd6c5a2,19:23.1,Running,42.393086,-71.125202,15177.21125,44,2140
125,64e5839ed971c06bb489213a659be0d5,51:11.6,Running,42.362747,-71.091611,5155.143121,77,2139
126,9a8acaa38c6d02d0ffd0d8fb427e4c0b,32:16.1,Running,42.361585,-71.072865,6029.719965,32,2114
127,4977d2783dd84cd54ba72105ff054b0d,31:53.3,Running,42.352731,-71.086556,6087.919555,31,2115
128,9e5f294ff3d26d2d4f8cac55183eeab5,33:37.3,Running,42.352242,-71.088654,4520.63549,25,2115
129,275e30b2444d41625464b6b057add062,31:27.4,Running,42.361596,-71.105984,3228.983713,19,2139
130,7b7d96080104191de044b9cc76a222b3,01:56.1,Running,42.381016,-71.097112,8169.750439,98,2143
131,90fd581a4da8d2a2bcebf9368544e90e,06:04.2,Running,42.38113,-71.09705,7024.148742,74,2143
132,39bd26dee57693db419f4a4003ccaded,38:18.8,Running,42.351042,-71.070405,3372.163797,13,2116
133,600337691832a864a62008cf08ac877d,33:15.8,Running,42.36776,-71.1945,7207.087982,129,2472
134,e2ce20341fe91eb866a6270c9d73f31a,30:04.0,Running,42.347435,-71.093949,7982.987746,62,2215
135,2c209429cc5ad6ad008c6b14db8da535,41:08.3,Running,42.347455,-71.093965,8701.409749,157,2215
136,db64fc2f2fd25890e5de636e31840794,21:52.5,Running,42.354772,-71.051362,20767.72151,160,2210
137,091338c5a172cd20709b78481fc93e02,30:13.7,Running,42.353479,-71.048971,20527.92645,256,2210
138,6765740db32351fcb41734d7b745862a,36:42.4,Running,42.370676,-71.123849,4553.061875,25,2138
139,066ba4fdef15455d41fb08b49718d603,50:10.1,Cycling,42.30783,-71.109881,13940.57921,69,2130
140,9284f988ec11a6b4fc5728274202b431,49:22.9,Running,42.342457,-71.140528,5838.982595,94,2135
141,f3567345c7c234250e8b95941464ccfb,06:12.2,Running,42.354152,-71.083827,2870.967411,31,2116
142,4c3be0d7df6e187411503dd39a9fd117,48:21.3,Running,42.27167,-71.18063,1608.263541,48,2026
143,a750df374e978d75fc289a1ed69b8fa5,09:17.8,Running,42.353497,-71.049321,20541.28175,148,2210
144,f78c0fce2d469ebd38f34b3c065f5da5,16:49.1,Running,42.350759,-71.116087,9603.233122,15,2215
145,beab81e92b026365538b51eaeefc7d6e,34:55.7,Running,42.23692,-71.09936,6188.235997,48,2186
146,6249febf1cda247a2288599ee8d1bbfe,24:03.6,Walking,42.353792,-71.053584,3134.182189,23,2110
147,c15051fe2f3129da773039b3438a534f,50:41.3,Running,42.352249,-71.088717,11410.50453,84,2115
148,206f44eaa3340df2e9a309a9264e6867,01:05.8,Running,42.3366,-71.14705,5592.254064,51,2445
149,33b94e46db833ac1b8bfc10ff0cf3d31,57:52.3,Running,42.341166,-71.126228,5311.369654,46,2446
150,85ac7703074ffae5640a6493469cad85,53:33.7,Cycling,42.36772,-71.23679,13560.48342,145,2453
151,2f8abb4e389d52e425a8e68d2b415651,47:28.9,Running,42.35838,-71.10488,3217.806428,29,2139
152,75537d3aec4909c0219dca61b0b48a1a,22:07.0,Running,42.34915,-71.03957,13341.16727,367,2210
153,dca619786b3cb2f71a97fdce7dc76e75,06:03.3,Running,42.33814,-71.13968,10540.99261,191,2445
154,e73f80f00d773719215b7df3b166c197,01:14.7,Running,42.34915,-71.03957,17205.20281,257,2210
155,f7792067361545d96f4e64a2bc7c9cff,54:01.0,Running,42.352218,-71.088857,16409.04956,110,2115
156,6816ad076e2d7cef23ae913bd4407f21,06:07.3,Running,42.389197,-71.051416,1174.209734,19,2150
157,190544a0101e3ba3a4652cc900f7575a,40:30.8,Running,42.372932,-71.121633,4765.99606,59,2138
158,c59de8321af6dd132917ce21824a5019,05:56.2,Running,42.275,-71.17645,6577.183745,96,2026
159,9b970f4a50650d5727818bcd447ecac8,42:48.4,Cycling,42.384486,-71.119489,10323.13649,25,2140
160,361974cb04a717dd5c1f89ca3bd32d87,04:48.6,Running,42.355028,-71.110336,8187.123298,29,2139
161,dc689eca6ff2794890b4680683981e98,32:33.0,Running,42.342499,-71.094973,4814.043233,35,2215
162,a07fad3e0eaa333da117e3e0c7afda07,26:54.4,Running,42.34045,-71.11255,1862.277526,19,2446
163,c4df8ccd93ef28be5c004cd912d4e54b,24:03.2,Cycling,42.39716,-71.24937,16225.71825,160,2451
164,e0c41eeff5830a38fd45684204de1a80,52:04.0,Cycling,42.364484,-71.063337,8490.032827,144,2114
165,f0e5c641fb6ae9d57bb7412b2e270ae6,25:54.4,Running,42.35624,-71.06223,5191.93112,48,2111
166,2a331c3e61cfb0c9eac1a84f3f56fbbe,15:51.9,Running,42.382964,-71.0937,6538.441464,67,2143
167,636cc97822a0d7c4cb082a8c6434de6b,21:07.2,Running,42.347609,-71.101353,13118.13753,5,2215
168,9da50d9d118c83fd326cacab4bb1b6e5,50:39.7,Running,42.39179,-71.12385,9784.920102,120,2140
169,ead71a19dc1671214cfb166bcf64b044,16:13.2,Walking,42.359297,-71.059513,17215.54825,94,2108
170,6d285dd476126e7d907067a7ef8b8bc8,28:26.1,Cycling,42.35712,-71.09254,31104.02277,506,2139
171,af1f2d0f939a508924c01784bd704983,05:33.8,Running,42.33822,-71.14045,9869.424736,86,2445
172,686932598ea3907acd9c53869ea5c0b5,06:18.3,Running,42.33822,-71.14045,11179.10551,96,2445
173,c90c861c79fb02bef90c37c1e82e2572,07:24.3,Running,42.33822,-71.14045,8616.870836,99,2445
174,e4fda3a60341aa496d1618e61f5ef551,08:16.9,Running,42.33822,-71.14045,13543.04816,119,2445
175,620014f57c5b7561677d68d80f0ddad2,14:07.1,Running,42.34417,-71.15348,11867.30269,138,2135
176,bd6a86c710538b87c0b100e3faa148ba,08:02.9,Running,42.343515,-71.064205,13414.84591,149,2118
177,f8bdc0897727c1c5644c05da7cf28804,15:40.0,Cycling,42.371427,-71.118915,6206.634751,31,2138
178,3007a7678fa9b9d6834b0400647dcebf,24:18.3,Cycling,42.364356,-71.063318,7249.879499,36,2114
179,2684d4bc10c250650a789a3e5db604e6,57:31.5,Running,42.341605,-71.097216,2604.829993,29,2115
180,2b984fad961a0011b0c68917588c80c2,18:01.5,Walking,42.341798,-71.123105,814.8022354,12,2446
181,95336b8a2b3c85fc6b9f3dfeec2642dc,36:49.4,Running,42.33731,-71.1251,4311.208368,25,2446
182,f0057d161f2034ed1577d1bf86779b02,17:31.4,Walking,42.34138,-71.12366,799.9474645,12,2446
183,71c7abd19e7e51502430d68f40826b13,50:20.4,Running,42.367402,-71.118943,7467.907837,48,2163
184,e4a30ef3faff5543a9c7b8e7651a9120,52:35.3,Running,42.355998,-71.069386,5644.21616,20,2108
185,ca8ac5430c89cc78de1a7f7097eeebdb,39:14.2,Running,42.3477,-71.04498,9930.808344,110,2210
186,b05191e5e975c2b0478a6dfe8caab225,46:02.5,Running,42.348331,-71.046414,7184.892687,69,2210
187,096de82d39dc982092a706224120e205,13:59.1,Running,42.275,-71.17645,7857.569306,117,2026
188,5bca2b1317138e3742216e12fcefe27d,10:19.5,Running,42.364462,-71.116067,3580.374223,62,2138
189,ddf2c73b107133e732058a02f81b00d4,39:09.8,Running,42.360698,-71.071778,5118.22643,72,2114
190,80e0263d82f78f44d9e20e4ca5f6ebf9,39:38.3,Running,42.3378,-71.20156,3483.029672,71,2459
191,ba12fee1e235671683ebbddc71e84d54,50:04.0,Running,42.39524,-71.11604,5538.395231,97,2144
192,7fbfb62e8a68eae8559e721683b9641d,40:01.0,Running,42.33178,-71.12453,7572.219285,144,2445
193,f60e4983303e2b0cdd21db566d703bdc,29:47.4,Running,42.35609,-71.07368,5358.710359,69,2114
194,5b3eefa4690d4141faef0ebbec94524d,32:45.4,Running,42.35481,-71.0748,6499.142025,86,2116
195,fde7e5ae0f3d6fe96738a6021178f0dc,02:31.6,Running,42.34994,-71.04964,11527.89022,191,2210
196,79317e275befa6e89d2e79216c30ebc1,57:29.2,Running,42.36734,-71.05793,11398.13238,178,2113
197,23e81a0c6b6a5cb903b6f1b7ff0c57e4,47:14.3,Running,42.336235,-71.099212,4825.797177,20,2115
198,4209db5f81048ed5574df1b65980d88f,48:39.9,Running,42.33779,-71.105134,1611.646235,4,2115
199,5947a6c544462aa9d08293d91467068d,13:01.3,Running,42.350718,-71.111415,5176.869877,60,2215
200,01811a0f062b6fa89244900bfa373d2d,39:32.1,Running,42.359098,-71.185184,4850.873489,31,2458
201,a221425fbee61d144d46120136fc4edc,00:28.1,Running,42.37028,-71.11786,9967.25223,129,2138
202,5a5480040728cf0c43293d227ae6cc8f,17:21.1,Running,42.37025,-71.11775,12450.33313,185,2138
203,adcf7b8ba784325e6953ce30e5c92528,34:24.6,Running,42.362864,-71.091496,6621.8901,73,2139
204,2ff17d83f8561ea39772b99fdf563620,11:28.6,Running,42.38138,-71.100004,4970.596235,4,2143
205,42c9b18ce4a2cf9bc7db8b27cc47a164,46:01.8,Running,42.348575,-71.137601,8176.214474,71,2134
206,17e9c20e51e0aa033a153bad84aac1a0,53:34.7,Running,42.30765,-71.12847,8496.932491,125,2130
207,f0dfba48d8d2e3c3b8c6035d0e62bd06,39:20.6,Running,42.341698,-71.057242,921.3253961,6,2127
208,7ebb71d6fb20ab1730795562f37a7088,02:17.5,Running,42.333936,-71.035353,5395.983897,53,2127
209,1755a3400f52dcbdc8de0d3d4c6c3e34,09:24.8,Running,42.33347,-71.10616,6428.332411,128,2120
210,d845f0156c55821e9df20e398aa1ba8a,31:50.6,Running,42.40344,-71.12757,9874.64807,189,2144
211,e2e057ba3ffbcdb44f71b838b299d3bc,34:02.4,Running,42.365772,-71.082671,2277.462846,16,2142
212,638d197d1b4abbd3d769f00cb330546a,57:06.7,Walking,42.353424,-71.064336,2567.803252,22,2111
213,42645c8f020338b426976ba6030bbdcc,58:59.6,Running,42.3471,-71.07963,6264.492698,151,2199
214,0afe080e65dc6339cc168e1f898f0fec,49:11.3,Running,42.37853,-71.1052,6494.542484,98,2143
215,53f6ce4247a50935f479a85eeed5f59b,33:25.6,Running,42.361478,-71.097035,3562.512034,12,2139
216,c43a2063f2638113efb886fde93bad0d,39:01.8,Running,42.363444,-71.096649,9146.021641,29,2139
217,669b02e2b6cf3d257d7f13aac43d5b2c,07:52.9,Running,42.361415,-71.096906,6298.622319,21,2139
218,c6b8e76323e129628c7f2f5d89780b5b,51:05.1,Running,42.36388,-71.09661,17016.23711,157,2139
219,87865d1742542617a7afa42c6b8f5971,43:04.4,Running,42.27171,-71.17536,2375.955206,48,2026
220,3d0779affc091da5189514882829616d,35:53.8,Running,42.32783,-71.15495,6547.223348,88,2467
221,5591994b96e2dfdecf15ce3006714dae,41:34.5,Running,42.32783,-71.15495,6893.869303,87,2467
222,0b4ab200252578e5013a095f218c07e9,25:13.2,Running,42.361606,-71.086233,2663.86366,20,2142
223,e5ef661c9438fcd360da967fef2fc317,43:04.5,Cycling,42.330067,-71.044515,33614.6182,212,2127
224,ec0928bc70b3418b3bc63dbfd0cccb6d,15:56.0,Running,42.378239,-71.106423,10397.14829,78,2143
225,5a3820ca703164e28f9ad53c5acdde8e,51:48.0,Running,42.35202,-71.12417,3536.330011,41,2215
226,8adc87e0d60340bec8d5c6e64f11b4ea,07:10.9,Running,42.32697,-71.154,5242.138113,74,2467
227,28724f9d7375de3f87ed7577f3450958,02:33.7,Running,42.344325,-71.094615,2383.736805,49,2115
228,d031178fb558aa4a837ad228a873b32c,34:56.9,Running,42.333323,-71.118033,4135.910621,372,2445
229,605e9342a10c8d483a18d468efd34293,24:49.4,Running,42.252914,-71.000346,6603.062964,294,2169
230,df1090dd4ecbbcbf75313465dac38043,15:55.0,Running,42.351678,-71.078062,3456.632318,57,2116
231,583b5953018b7bb5d1f2dea78ac2623c,28:13.6,Running,42.36673,-71.10721,7041.238133,130,2139
232,ccf9467189db569fd31bf08380a10cd3,18:54.1,Running,42.353614,-71.065602,2712.381127,16,2111
233,398e2196adc3d4a43a47d588c9cd6adc,7/9/2010 22:34,Running,42.3745,-71.16494,20383.12009,366,2472
234,4be49dde2ddd8d7ad2076d64219a748e,42:52.8,Running,42.318491,-71.044112,11269.2197,60,2125
235,0fb4de111627ddab78255eff639b8d97,04:59.7,Running,42.337326,-71.117052,2705.506974,104,2446
236,60bbcecee73f7d6009de0a01210c7ff6,11:39.3,Running,42.337,-71.1174,3871.03065,66,2445
237,4d167206a28fef2c010e0d9aea678029,21:33.5,Running,42.379413,-71.100886,4851.863421,120,2143
238,802e0e57a0d0203882fed0e51476095e,10:12.2,Running,42.3634,-71.05722,5607.026655,101,2113
239,36d39d22558fbecb5215abae84f737de,02:07.5,Running,42.34149,-71.14828,6529.76603,96,2135
240,5a9f70be02e7be540d4ba40589e0866d,26:10.7,Running,42.335474,-71.045498,5329.61936,11,2127
241,6dd19946515fba27befa4b88f039117c,13:25.9,Running,42.265985,-71.010906,2964.818187,14,2170
242,ecf46a19fc48506ff17bfd27448ee0e4,16:27.5,Running,42.266049,-71.010992,4745.015883,14,2170
243,0789ded96af5b1799410669ef8b8b9a9,19:55.8,Running,42.259172,-71.00258,5019.322912,27,2169
244,c600f7e061b4ceedad23e1d6b2beacaf,43:17.7,Walking,42.339248,-71.011042,4025.780443,55,2127
245,8799d9cde45bbef29d1c6ee4dacd43c5,42:36.9,Walking,42.359637,-71.096009,3802.727646,138,2139
246,bc64f9e9747a762f6325de20e5593a2f,43:15.0,Walking,42.357203,-71.092714,2337.836559,184,2139
247,fb471bd66eea05243153fb8990791a52,43:36.5,Walking,42.34205,-71.083687,2183.929403,207,2115
248,f9d87100b3f3848ee094cd2656fe72d4,48:33.1,Running,42.352554,-71.066863,3489.665391,47,2111
249,e9cb35adc973a64f697b4dee7bbf8982,21:30.8,Running,42.27171,-71.17536,5034.281471,77,2026
250,a139647d8e800d3734bfcb65fc45c296,20:50.3,Running,42.36234,-71.10767,4944.499804,48,2139
251,62baa58e42f6951244c58428ce42485e,46:38.5,Running,42.37312,-71.10947,4649.935387,91,2138
252,2dda8589432e0d424655f6ac8fc0e111,44:15.3,Running,42.34679,-71.20389,13478.57113,271,2460
253,a77d0065c934508154c79fc9ba6e3db1,35:57.1,Running,42.308019,-71.050765,6788.969369,63,2125
254,98e3ca0f692616a7149d04243e9eb0b3,30:11.8,Running,42.349832,-71.066664,3150.427347,313,2116
255,e143088b2ab6c3559dba88c67f51774b,28:17.6,Running,42.34172,-71.14505,10203.5636,104,2135
256,4ed98f275e6a197043dcc3d9766bf834,17:47.7,Running,42.39042,-71.12131,11532.17634,164,2140
257,e8dfbaf4b1798fa29e873d15f5cbb4ba,01:45.1,Running,42.3366,-71.14705,12892.21518,118,2445
258,af6cfbec4a15d2185bbc2f8170016f37,39:36.8,Running,42.39042,-71.12131,14795.01266,194,2140
259,f4ad33e8ede553530a2085b47686132f,17:37.0,Running,42.358445,-71.070655,4913.513288,29,2114
260,d3f1f4dd0389af05ff2c9e1f6ec6750e,09:05.1,Running,42.34172,-71.14505,13130.08341,128,2135
261,26b04111ad90df6987e66ba8aa9d759f,15:21.4,Running,42.3366,-71.14705,12895.11897,122,2445
262,1fd6e8fe832b16adf5edcdb17c4452bc,52:11.0,Running,42.387111,-71.00806,4419.462064,14,2128
263,06a56ebea3eeadeb14a06f20b53839b0,45:37.4,Running,42.346358,-71.042118,10202.31472,89,2210
264,6d6bd5b1a763115c54aa270b322773fe,55:23.6,Running,42.347153,-71.044524,8878.58672,338,2210
265,0d9ddfcfa71bec495e008715ed34a241,46:19.1,Running,42.348412,-71.105935,9754.578157,45,2215
266,8674d87cdd997ac5ae7acadca68df675,12:06.1,Running,42.308039,-71.050694,10149.09229,132,2125
267,fc32d477e127697375a2143aa19759f5,00:35.5,Running,42.306475,-71.094919,21316.91997,232,2130
268,24fe0d94f3d569d2741cb8f3b4b93926,7/20/2010 12:55,Running,42.34172,-71.14505,5895.695366,47,2135
269,2ba6a2ee3c64c7a622bd01f3a3061555,03:14.9,Running,42.371479,-71.11061,5435.050614,89,2138
270,85ffe79b4d85ac23e32a185d8b608cea,37:13.5,Running,42.32567,-71.12241,6222.3782,305,2445
271,0f53b06ba7842398b7c3aa40d66d6792,56:51.5,Cycling,42.34824,-71.13677,6834.802019,53,2134
272,eed5de2260f87566e05a78b80a212567,44:47.5,Running,42.37392,-71.16475,9402.049214,197,2472
273,b37e73357573c38f7c2d2b3f71c34332,04:45.1,Running,42.34153,-71.14571,6642.714146,68,2135
274,10000860f1b599ba75708e25d023d5a9,14:31.3,Running,42.35601,-71.069477,5661.476584,289,2108
275,7e0b092e4f4378ebaaaf12177ed0d44b,15:39.8,Running,42.30456,-71.106753,16624.41245,384,2130
276,ed8edb71e51de422afca1f8108b0a58d,16:09.2,Running,42.30456,-71.106753,17982.71979,384,2130
277,7f90ae62b9ea9b14279d28b7898b7988,15:11.5,Running,42.295533,-71.15766,17546.25257,317,2132
278,aefd9b7917c81d35290e9a158fbceaab,29:12.0,Running,42.33856,-71.13709,10772.28102,71,2445
279,ef1d6f08d8e4a199d5d4bc824571fbe3,44:40.5,Running,42.359413,-71.099384,6301.340846,297,2139
280,eb2a84bfac3413271cf00d28e9c569ae,46:26.5,Running,42.361334,-71.130043,5202.182143,90,2134
281,09410349b0a34a5d257b52d6df28b176,57:19.9,Running,42.3745,-71.16494,22131.20488,474,2472
282,d6d86bc81cfa1a59e5ae6f87cae648ce,57:02.0,Running,42.344839,-71.051998,19529.24139,146,2210
283,fa418215cd3e635b01498584de1b153e,59:35.7,Running,42.350665,-71.082616,20003.87338,111,2116
284,26148231c0194864daac4826360c36b5,01:51.5,Running,42.353128,-71.083836,5150.531245,42,2116
285,a98b83834d7559ae18f3cc0a5bc68a3c,42:51.3,Running,42.351855,-71.070687,5079.332978,33,2116
286,90a1a7988d4360d6ede9544e827c676b,43:49.7,Running,42.40604,-71.078199,6935.670247,464,2155
287,7ffe98a30a160ab25394b3407790c9ac,05:38.1,Running,42.3534,-71.06122,2864.674509,31,2111
288,1935a5e4be88eef70b770b3b3919e3fe,06:06.9,Running,42.3389,-71.08114,3140.730498,38,2118
289,01101a8ac24c02a768a37ffbf15ce520,49:26.6,Running,42.372658,-71.093994,5235.430373,476,2141
290,fc30642f3fe4baee177b35ae2df9017e,51:13.4,Running,42.307986,-71.049501,11432.37491,87,2125
291,f64ddcaba65ce03c12f04da5d91871ac,26:10.8,Running,42.354332,-71.080948,7860.353298,484,2116
292,20b79e94efc75e114432e6f455231242,13:08.7,Running,42.347788,-71.078485,6578.278854,38,2116
293,e38c1251f7c6495a3243746a2094035e,53:29.8,Running,42.302885,-71.102525,5988.608832,162,2130
294,8e4d707835bcdd83003d9359a0d4a50c,05:26.4,Running,42.23692,-71.09936,7099.537706,73,2186
295,33a7e9c203f402c1bababbd553224102,15:46.3,Cycling,42.38916,-71.14601,2438.953096,44,2138
296,2f38ae2cfcbd624263d7fd7c6e1c9bc2,49:55.1,Running,42.349078,-71.080732,8053.275288,134,2199
297,596453a023ec98b6bb7e271bd5f42e17,30:49.3,Running,42.35616,-71.14907,3297.921066,31,2135
298,095d9793a1f624f4406243c4b724683c,32:22.5,Running,42.3545,-71.14258,5060.600345,62,2134
299,c9e029359528a53b50e2cc9233c58279,10:17.2,Running,42.350287,-71.079913,6811.713985,130,2116
300,0a524deb05705dbbc2898d47b66eaaec,26:28.0,Running,42.372048,-71.156835,16001.64975,69,2472
301,330609228c0178b8033d17b0762d70ef,08:16.9,Running,42.356199,-71.069305,5136.979184,22,2108
302,dc15f17ef6cd676cd185132f1f70fdbd,58:44.2,Running,42.376273,-71.115627,9738.486179,67,2138
303,19f3a24dd6fff5b96df036a691a85a10,41:18.4,Running,42.372127,-71.156621,17939.45588,122,2472
304,532aa342b937cd14cab4c8d4f738252a,29:20.8,Running,42.260538,-71.182621,5614.767995,137,2026
305,c5a3c740c190ed6a633b4e529d3335d5,34:50.1,Running,42.260261,-71.182772,7406.770493,135,2026
306,8659e22d0ae47f38a3ddeef7ec08ed1f,16:47.4,Walking,42.343897,-71.114215,4106.601008,2,2446
307,10cfe3402f66f313ef9924c9e8a7a4c0,58:58.7,Running,42.38514,-71.09417,4664.199515,20,2143
308,aa9c7a1221a075d461ccab9cec90bf28,00:19.4,Running,42.385124,-71.094196,5517.997443,12,2143
309,44b99e2eaa97acac0a3610660c492c62,04:09.4,Running,42.381066,-71.097179,6314.721746,24,2143
310,a762a0afdf31bf685a493ea34d8bc5ed,05:56.8,Running,42.38105,-71.097157,5622.324517,23,2143
311,b72de87966cd807a4b6ae0cf411feeac,08:27.5,Running,42.385124,-71.094239,6223.062618,20,2143
312,e016c0797d8fa4f6b1e2280bd5426182,11:49.5,Running,42.385156,-71.094218,7001.613344,28,2143
313,3bc1721ff5c5e5b24f83ea692c3d2173,09:56.0,Running,42.35252,-71.06696,5438.29896,152,2111
314,7559aff6c0db05ed11d1f382e06e558f,12:05.0,Running,42.385108,-71.094185,6694.799459,21,2143
315,483d3353dd5f29392c5d3a1452063a91,49:06.1,Running,42.32567,-71.12241,12711.71489,353,2445
316,aff98d0db1a3400e001de3c6ad61d41f,38:13.6,Running,42.34801,-71.20311,4982.770515,61,2460
317,22a5c0f8f3a9033fd2635bb065421037,06:36.9,Running,42.362381,-71.107655,7080.595095,45,2139
318,d628c79613885ef5b52a01669345258c,04:52.6,Running,42.32567,-71.12241,9327.935512,215,2445
319,4ea2d914770af749e717e8a71116d137,27:02.9,Running,42.356593,-71.063447,5007.640382,46,2108
320,583ade5771639a045279d891d68cc209,07:57.1,Running,42.305987,-71.114759,4780.277745,426,2130
321,8ccd4d50b7ba65a82a81e4a7a3a4c2dc,43:28.6,Cycling,42.331363,-71.045509,23122.8164,301,2127
322,f7d86c365bc45ee26d76440081a6f5ed,32:11.4,Running,42.3364,-71.04272,6839.616392,98,2127
323,38d65821d4c2c12a20acd337f440ef3c,01:44.7,Running,42.32567,-71.12241,9777.462739,243,2445
324,b766b2adcf2c64d0f2e14aca8096a27a,07:09.4,Running,42.34184,-71.09651,9665.944732,215,2215
325,9000fc99efdfa9d24a515eecea78dffa,39:52.7,Running,42.36281,-71.0639,5328.978289,99,2114
326,b124adddfafa40a4db528c9faaa9e55f,17:46.1,Running,42.33814,-71.13968,5705.706913,38,2445
327,c3772adf93c5a5f0c3524ec5db0f2905,44:31.1,Running,42.305525,-71.108428,22072.72587,472,2130
328,c6f6f2dff34ef43d233cb645c0cf0df1,39:01.1,Running,42.32771,-71.12509,16259.89142,213,2445
329,1a1946fbbcf4b6dd23b33e5721bc6ae3,27:42.6,Running,42.365645,-71.052977,13856.87758,76,2113
330,be3c36ee4c6cbde5d18e6175c40a37c8,33:33.8,Running,42.374976,-71.152096,5068.912484,478,2138
331,a4293ae44176d9db87bd3c705efb443b,29:36.7,Running,42.35188,-71.07823,25839.58242,402,2116
332,463dbfe15f03f2f001466a0946965154,31:49.0,Running,42.32771,-71.12509,16259.89142,213,2445
333,1ca16e5085a94ce03a9807c70ad4aa78,35:24.0,Running,42.36577,-71.05117,5765.424665,125,2109
334,1355d944898f6228a10a498df4d7a843,40:17.2,Running,42.34923,-71.07937,5856.728272,33,2116
335,3a601e188482d5502daee1e525620af8,52:52.0,Running,42.27152,-71.175285,2880.362188,40,2026
336,046127d8cd3f430d8da09d3c3f52b353,17:51.4,Running,42.369066,-71.125903,5249.919932,65,2134
337,53bae692eb3bbd1bb1ed0e9f57f20654,15:20.9,Running,42.3745,-71.16494,11386.67676,250,2472
338,98725f7461d3bab1dd00c6d17b6f34c5,50:54.9,Running,42.340539,-71.082939,4604.549854,64,2118
339,f355d354a0f51eb2539a644440cf31b0,52:50.4,Running,42.27171,-71.17536,5707.907246,70,2026
340,fcbeb77f5bc64793ea6e53d7d3477eba,38:05.0,Cycling,42.34891,-71.13907,8014.159607,95,2135
341,c0f331c8e6c5bc750883261913fbccbd,08:06.2,Running,42.384284,-71.097211,5863.285452,20,2143
342,ca2457bf8f7a79342fe81a6143abab52,00:10.8,Running,42.32771,-71.12509,5081.745104,139,2445
343,def99143ebe660849217bf9d31caead4,23:03.6,Running,42.367146,-71.124708,9208.084709,32,2163
344,2bccbdb76ebd865bd6ad35c3cbb10d57,29:45.4,Running,42.36297,-71.09364,6475.806885,110,2139
345,b5a6e5b07f6023c2baf6f9b98c5a803b,30:29.7,Running,42.337477,-71.138083,5366.875605,170,2445
346,34068e72a26816b316b3fe543818ee07,59:15.6,Running,42.36219,-71.08318,1633.95173,12,2142
347,51831ca990bdb7e02b1b3ce00330b196,00:52.4,Running,42.36992,-71.09619,412.4704274,3,2139
348,78549412e29b2517bb4a89d0a185dfa7,07:51.6,Running,42.359101,-71.113937,6275.243253,29,2139
349,fc018984093fa108a1f1c4afdcc8690f,13:14.9,Running,42.379413,-71.100886,4851.863421,120,2143
350,5e8959a443c83841c91e0f89d26e89f9,50:10.7,Walking,42.320614,-71.12155,2282.907316,35,2130
351,1aec0e395f15e64cf32f46882f725557,53:36.9,Walking,42.32053,-71.12172,4892.45161,140,2130
352,55f809f79e10834871437326644351c3,53:19.8,Running,42.364427,-71.116321,6040.739715,25,2138
353,c4f53eeb9682fb8b50101892a64172eb,49:07.0,Running,42.367379,-71.06794,7976.75724,39,2114
354,b5ea7dfc5c4791a5cd50934f1beb4f17,16:51.0,Running,42.33455,-71.24375,15300.91347,146,2466
355,30c0532b67e3e7d357b328a4835742ec,31:36.6,Running,42.3745,-71.16494,25868.02111,460,2472
356,3723dccbb772f72dc528dc2d211b4245,39:01.5,Running,42.32771,-71.12509,20794.87149,261,2445
357,a8e1b44cc489e2fea6c8da5461f59c33,38:44.6,Running,42.368239,-71.1235,7549.932895,3,2163
358,d10a6f728c0302a32951b537d859cc0c,47:02.0,Running,42.305525,-71.108428,24243.94951,511,2130
359,fe159181d39441d72218885658e0dc32,03:04.2,Running,42.3257,-71.0833,4383.971892,64,2119
360,c9d9e089f87daae2ba121d9bfb076093,01:21.7,Running,42.278456,-71.027287,1901.443438,8,2171
361,99e7a356361fae3b6259b75a24553715,08:42.0,Walking,42.281619,-71.142182,3361.227439,10,2131
362,890551e1ecbe7adc3cb2c3ddfac62610,19:39.9,Running,42.32956,-71.04546,7770.665168,160,2127
363,418c96d29a3d49d471399db14bb56787,32:20.8,Running,42.341927,-71.142332,1561.634233,15,2135
364,571b1dc70739cc50bdde19d04625066c,30:38.8,Cycling,42.28537,-71.13762,10557.04777,206,2131
365,9c5fb65031e9cbeba7721fb1fd4d1de9,46:27.6,Walking,42.382077,-70.981324,2219.317189,216,2152
366,68c731b3ff649e0aad3683426c37d5ec,29:09.0,Running,42.34679,-71.20389,4745.366028,72,2460
367,20a2e23643b891b47fbe3d3e9194d0e8,59:58.2,Running,42.387876,-71.115438,8960.301258,27,2143
368,adcbb42433642a1ec4601e423a923a6c,14:06.0,Running,42.354332,-71.080948,7860.353298,484,2116
369,f6a74a21716ec8f7c102d3428f65d9c6,15:33.9,Running,42.369052,-71.073116,11307.70638,110,2142
370,8507dfe8744fc3c0388a7e30465adb84,35:05.6,Running,42.3454,-71.08181,7363.997443,61,2115
371,ab5372f07b045b76a31a0805d033ae69,14:31.1,Running,42.357039,-71.092391,5812.660081,73,2142
372,66e1104aa559bc9fcf91f7575b686dfa,16:53.9,Running,42.3387,-71.01694,5674.971846,86,2127
373,58e14733f1afab10d5c07805a2718b41,59:39.6,Running,42.3745,-71.16494,11535.02299,260,2472
374,4987e4c21c3eab26c6eac78d7e0bb8b6,32:03.4,Running,42.305,-71.10738,12886.42819,284,2130
375,ae44d995cdf3c099f33e611e80a2b067,35:13.7,Running,42.305,-71.10738,9877.359216,189,2130
376,9b55ebd0f6127c0ce2e96b494d5f800a,51:15.0,Running,42.336127,-71.099302,3961.250446,127,2115
377,29a67d7388f8f99f694816342927a43d,20:31.0,Running,42.373755,-71.100967,11787.47907,102,2139
378,937965f8731847323dcf1099f31fecbe,53:06.3,Running,42.23001,-71.14913,8385.720971,113,2026
379,57100e7947e1972ab765bbcf789e72d2,28:55.0,Running,42.32771,-71.12509,16586.40702,258,2445
380,1603870fc4a8ac81c6084adfef6ce095,06:07.7,Running,42.299649,-71.037619,739.8403504,14,2171
381,b624263bf9d5811ff7a779d490009431,14:43.9,Running,42.391442,-71.114909,9744.71392,119,2144
382,8b276b147063b696c9b52d9bd543d1a5,42:22.5,Running,42.39142,-71.11498,11877.7343,180,2144
383,aaef6ddfc1bc022cae2af8403bbccc1e,37:39.8,Running,42.383076,-71.095597,7986.739096,187,2143
384,e8c37e3d697b72ae6ff7472236d50e65,35:25.0,Running,42.36968,-71.119,11561.83695,189,2138
385,164a72d93bbbaa87e6bdb6407a75f4da,58:08.6,Running,42.33029,-71.19676,11297.44067,145,2459
386,7f12fb3a0c594409a5d53de313cea1bc,53:29.0,Running,42.37983,-71.06437,10709.98741,269,2129
387,627ebc88b5b54041995a519afac078a2,29:15.0,Running,42.34144,-71.068013,16138.17919,491,2118
388,59150bd84b11b77b60f76fea3483b2ff,54:04.8,Running,42.33687,-71.16398,10641.76306,131,2135
389,00dec88d5d504eaa0ca13de335d2f356,55:58.9,Running,42.33687,-71.16398,11430.51224,133,2135
390,e158bfed192af0ca4c4a2c56a27b0656,37:32.3,Running,42.39142,-71.11498,6628.835418,55,2144
391,1462a88b70f76a328745d6dce44eaae5,42:14.5,Running,42.39142,-71.11498,11325.908,167,2144
392,28135495a139e6008fd45c6752c0dc05,28:29.1,Running,42.365524,-71.052945,17357.62242,101,2109
393,8e7ae38c7e4db0e9b08d6de242580a77,51:30.4,Running,42.38798,-71.11539,6160.455582,75,2143
394,5e0d14d55c76f8aef1ac8fac722cfc92,51:09.1,Running,42.36508,-71.10695,8167.511775,125,2139
395,9ac9140134eeb19b739546bee4281abb,47:22.2,Running,42.34219,-71.03598,10539.81847,132,2127
396,bfa7d5211c8a26db0ae22f066c28921a,37:31.1,Running,42.357817,-71.051959,4057.898667,55,2110
397,4ecc532b30f3784518e12e9bdef4be93,47:29.6,Running,42.373136,-71.097041,5351.509119,480,2139
398,12def4c5bb50e1bf12380c138533a69a,14:55.0,Running,42.36972,-71.12252,7713.604412,122,2138
399,ac24012a7438c1b3be4086470e51cd67,53:19.6,Running,42.33473,-71.04728,7260.617237,79,2127
400,7a2752913de5f17adaf0edbf236f8e7f,39:43.9,Running,42.39142,-71.11498,5603.989783,75,2144
401,2a1a34fe7c9cbfac777a2b57f6760ef9,13:07.7,Running,42.367843,-71.121338,13888.75385,60,2163
402,ea3dee2e2af9e82ae2c1124c37b2d773,53:38.5,Running,42.23021,-71.14865,10661.15529,163,2026
403,5f146848ded0229b053165d0698b2aca,12:04.1,Running,42.3663,-71.09178,10035.76068,226,2139
404,366a41b31f2249a6a0272edfab326d92,19:08.1,Running,42.367399,-71.090965,6081.217904,219,2139
405,017ef946a85283b9c44590c06ada2eae,43:25.1,Running,42.38874,-71.11111,13485.51375,142,2143
406,1236dffee6f58f38076677f56205a520,56:23.8,Running,42.329702,-71.044271,8016.088199,41,2127
407,cf888a709e58939aaf97387f66c53e88,49:22.3,Running,42.3745,-71.16494,32916.42951,572,2472
408,789bdee2cfbbd339960933a104c183f6,53:08.7,Running,42.3745,-71.16494,29241.74217,497,2472
409,d8716d04704af0bbf194ea2410ef0dc7,08:45.9,Running,42.373653,-71.109086,14985.2021,215,2138
410,fc13751cec43118f8205938befeed1b9,06:31.7,Running,42.3745,-71.16494,29241.74217,497,2472
411,dd59db9d1fa7f19dfe9b78279d925f1d,50:44.3,Running,42.357092,-71.064576,3187.771768,81,2108
412,1f10ab1c5f80f3563ab97edb55c5e9ab,41:15.5,Running,42.359143,-71.059719,8641.08709,38,2108
413,960aa18f5ceaa1d7cc3d4750108459b4,08:34.8,Running,42.30804,-71.12469,4775.968763,129,2130
414,5a759dbb9440d4b8cab0bb953fade5f0,35:11.5,Running,42.23692,-71.09936,7683.607743,131,2186
415,115bf9058d7f18c0c0e73a3ed1b68c8a,33:30.6,Cycling,42.372234,-71.060461,2114.455752,9,2129
416,0879d9f727584a63fb91fd157b1835a5,19:51.5,Running,42.376987,-71.056551,5712.564211,49,2129
417,900ed6fca9e84ba44d7ffa3725baa118,25:23.7,Running,42.379777,-71.069468,6557.43532,52,2129
418,6b9e6f34634930ddb4b8b250d9d940fb,41:33.4,Running,42.39055,-71.11358,4265.544447,43,2144
419,c18318101471b1ffd6547cc80ab0dcf9,46:44.9,Running,42.39041,-71.11368,5913.599712,75,2144
420,e1563d5fa7908c823965949ce5c0d7b2,13:58.6,Running,42.35528,-71.07742,13066.8648,107,2116
421,7e0d49e4ffd8ab6e0e57322937127918,44:47.4,Running,42.339951,-71.166235,12418.79875,117,2467
422,043506ba9a6db0cc6a3d36b26654d1b4,50:21.5,Running,42.321619,-71.11603,8913.829826,369,2130
423,24fe688a8d298934a1cb487b52a85e37,03:48.0,Running,42.32332,-71.18562,6781.46677,114,2459
424,67e3a84cfd67e857a3da7c8886181099,54:53.6,Running,42.363539,-71.100544,6762.589365,15,2139
425,5abf81d5553f0fa7a45c08aaa9282f6e,50:31.6,Running,42.34266,-71.10314,6971.712546,122,2215
426,34572726c5763156fbb147082b426c19,21:52.1,Running,42.37317,-71.12088,4173.511084,108,2138
427,bb295ecf6c2e9608aa2329bacb657933,24:25.5,Running,42.372539,-71.120161,3236.215867,55,2138
428,1a3091419e298ec38b8e9191f21fee83,45:13.4,Running,42.39572,-71.13835,6891.607391,178,2140
429,16442c8c1e28d13d0d42b5fbaf503f9c,03:06.8,Running,42.39142,-71.11498,6065.158763,88,2144
430,6599026d9da755948a6ae33eaef50a72,12:31.2,Running,42.39494,-71.1104,14529.84241,146,2145
431,26db8e18d5b96a79b1e6a5cae953ea11,26:24.9,Running,42.35583,-71.075566,4350.093386,7,2116
432,3833e758885e86f380da09cc58ccd753,12:23.6,Running,42.369091,-71.073155,8453.472802,105,2142
433,c2bd129847446ce079e2dec9451c708f,08:04.6,Running,42.23044,-71.14792,2625.230643,44,2026
434,09bb98e69d86df784f78de2a9aaf9643,40:09.4,Running,42.340438,-71.112545,13530.79558,146,2446
435,9e2a682145ed195249088b0ff6ffb37d,57:34.4,Running,42.340454,-71.11254,19725.33656,205,2446
436,a38449f3184b9d70c3797d0456faab50,18:29.7,Running,42.336536,-71.121175,6745.547755,16,2446
437,e9a54a34714746f44432a9f248c0b003,07:06.2,Running,42.306475,-71.094919,21316.91997,232,2130
438,3ca7bf566902fd3391b656b21c4cc23a,54:32.1,Running,42.34781,-71.08586,11490.35127,190,2115
439,80720dff35e812add6163b6f352b9e46,49:24.0,Running,42.37953,-71.06372,8736.55267,140,2129
440,a76a972967fae423af182ec39d3d37e1,21:26.1,Running,42.37899,-71.06264,8443.874283,71,2129
441,12228729bac81525d0c73db406a51407,57:56.4,Running,42.36499,-71.10902,3328.961001,53,2139
442,bed1a1c65c151baafc188fec8678d380,01:18.0,Running,42.36504,-71.10903,6408.556383,117,2139
443,f3ef451cf5f629b56c5f5767828e14b1,04:28.3,Running,42.35212,-71.08999,4754.234182,75,2115
444,c125b69215b60a8c4b2adf5e2445c0c5,42:40.2,Running,42.331812,-71.116473,6449.119321,95,2445
445,ed6103cb62b8faea804a65fb0fb977d8,17:00.4,Running,42.35221,-71.16433,9665.162469,137,2135
446,fa59d25b858ecab0f27711d7251d2ec4,32:36.0,Running,42.32129,-71.11827,2303.294505,162,2130
447,5d9fb20a8c603bc27ec52586c95d9488,53:43.4,Running,42.386765,-71.140503,5930.037614,79,2138
448,ba8c11fb032472dfdd28199bcc33d7a0,12:25.0,Running,42.349481,-71.127534,1787.728129,12,2446
449,b1163a4fedbf58f2e28405a81a6626fe,20:03.7,Running,42.33814,-71.13968,6445.089195,62,2445
450,7cb0af58246954f65a21c05cc81f0922,19:40.3,Running,42.39048,-71.11363,6743.944833,81,2144
451,295e75413d62896334200c78ade21c47,07:10.9,Running,42.385124,-71.094196,5518.241675,13,2143
452,2667d32bac742397de6c66427077d369,49:40.3,Running,42.32133,-71.118519,3252.174572,83,2130
453,feb71d8e150d5b666c5f87502e1841fd,08:59.1,Running,42.32172,-71.1168,4790.908105,314,2130
454,08cf5d20ae71af27de5597bccfefe13b,20:12.7,Running,42.29194,-71.12392,5500.167091,154,2131
455,ec604f47196ead65242be8ac6ac4d355,29:52.1,Running,42.31874,-71.116989,6442.924898,137,2130
456,c30482f4efdf46277b8b1cc66078f562,34:27.3,Running,42.32198,-71.117,3988.185937,117,2130
457,7910a2651d7b19a59e8b2434ab768a94,12:31.4,Running,42.347476,-71.09396,7077.168642,125,2215
458,7d57bb6deb01d53aa46dd8d43be38f97,11:03.6,Running,42.300013,-71.266506,8832.990939,486,2457
459,230cc43c11581598c693c0a36c35cd76,22:55.6,Running,42.352813,-71.055683,9848.745664,67,2210
460,7949ecf05f0630a1936e90cfeac9cdd9,15:37.9,Running,42.341664,-71.08325,6486.923816,96,2115
461,e22e5fb85b3ffe0bb4ff87a85d67a88b,29:14.3,Running,42.36177,-71.07977,3341.562589,41,2142
462,c6ac69fb063c3bf6d726df85f304f60b,43:09.3,Running,42.351184,-71.082899,4743.86686,345,2116
463,d74ce8b9a7925b1e5a7a4ff2ed50054d,36:05.5,Running,42.2584,-71.03685,3947.732024,56,2186
464,62168060246fbc89197a988b893aa5ce,38:20.1,Running,42.25843,-71.03691,6124.426286,75,2186
465,454efd83095755dc245f42a704fb5000,47:17.5,Running,42.25839,-71.03683,13063.77515,144,2186
466,b8756c791db05fa87411afa578d7f49f,57:39.5,Running,42.25839,-71.03683,27283.48425,279,2186
467,9de51bb45bf71481d3c99ee114356aeb,13:42.1,Running,42.3667,-71.10724,11095.05908,194,2139
468,55bdd62b2ef3db624f6c1f2ed9d6e151,02:53.0,Running,42.305,-71.10738,21899.44215,574,2130
469,b30fbac0b07edfc4144fa769f593c425,12:18.5,Running,42.38874,-71.11111,14470.13039,192,2143
470,e8df97903ceb99a3b17f5437a0d80d0a,42:41.9,Running,42.39142,-71.11498,14812.35321,196,2144
471,d4db4a6c430d93b6a9da2e5ff634ee26,49:34.9,Running,42.3414,-71.14854,9875.105373,157,2135
472,6afdd89231dbd3e74bb67c2531e7046d,11:41.3,Running,42.331718,-71.116864,9682.758147,112,2445
473,1dc919ff156b0b20016b3858e3b42a76,09:32.8,Walking,42.328141,-71.110648,2038.765421,10,2130
474,132dac98bc8ed3ec186490518b9d089b,04:21.8,Running,42.37617,-71.1038,3502.107919,27,2143
475,ffef652d750d0c94c25c311781aa916a,57:35.2,Running,42.33168,-71.04924,12676.43909,269,2127
476,16a521a86f8c023c41760804835e080f,23:38.4,Running,42.3366,-71.14705,24407.41728,234,2445
477,d6c368143877bf71b615f8c8a3f090f2,21:32.1,Running,42.33912,-71.08009,8652.792044,159,2118
478,647595cee94809e9cbeb7e7a09b1c231,58:40.0,Running,42.37383,-71.063411,10927.35986,126,2129
479,61f762902fd3c25310bdc66fa66d7276,04:31.5,Running,42.33814,-71.13968,12899.16956,104,2445
480,39a99fa043e8508220fece721b736be2,15:27.2,Running,42.34162,-71.0862,4776.841706,52,2115
481,3a2fccf9ee2e83a2b2772a7d3151645b,46:52.5,Running,42.326344,-71.111618,1465.124943,131,2130
482,af53c158357ac4bf9d4c7f6b9ae517f1,45:45.7,Running,42.2439,-71.17486,2080.063337,55,2026
483,28d26cfc32d218bfb252d603928ad73f,48:57.4,Running,42.362058,-71.083084,5305.66995,26,2142
484,e93fd99c7562cfdbb68b90c18028e300,52:33.9,Running,42.365007,-71.089886,6386.147928,19,2139
485,c75495cab9139e1d5b6d95acae957c38,56:18.1,Running,42.366973,-71.089157,4640.470509,22,2141
486,bb63567d4be88ef2e543aea42fe6d8eb,01:44.7,Running,42.36488,-71.089843,7122.514384,18,2139
487,7b9bd2f84077c84f200149afda5da6a6,06:16.8,Running,42.364849,-71.089715,8159.313284,23,2141
488,97a0b9536a6eea1bac8ce40a505c51f8,29:10.9,Cycling,42.33888,-71.07362,5188.961342,66,2118
489,0016911ed4c01021fe9b9088b4a9d946,16:04.5,Running,42.34255,-71.081891,7902.916671,93,2115
490,4cee0d5912fd32bcfb3991e2c84289bb,07:01.3,Running,42.33912,-71.08009,15220.2045,316,2118
491,5402d16bf42433f4f91be64d6fb72e2d,36:56.9,Running,42.388322,-71.125478,4939.915306,48,2140
492,73a9edd6eecae59778a8dbfc8658d45e,41:22.7,Running,42.388354,-71.125478,6905.858805,77,2140
493,24ab55a18d36ed47a9c7dd07040a309d,42:32.6,Running,42.388354,-71.125435,7917.957068,94,2140
494,5974a28acedd427fd906dd156c76cc18,48:51.6,Running,42.347328,-71.183433,6964.887981,103,2458
495,b1a9cfc9932e69a48f3d65a2eeee6813,30:04.0,Running,42.34183,-71.06898,6882.440668,127,2118
496,3e5341cf2de8fc1f0c02a0555f0554fb,35:41.3,Running,42.34183,-71.06898,8256.133265,82,2118
497,5b63ed2366b35fb220f8030439dc6c61,55:55.5,Running,42.380432,-71.069973,6421.422802,89,2129
498,573b00d4afa17caedf41bf8e36371e87,00:30.0,Running,42.364412,-71.069603,5297.237216,132,2114
499,66f298e1fc7052a08e36feefbbda7ef0,06:14.7,Running,42.364375,-71.069503,3215.119262,79,2114
500,1f1ea334430a02bebbf8d160b35ae898,36:39.6,Cycling,42.4032,-71.12707,11097.23199,133,2144
501,d719a6edb3f33e1e3b092b4be2c2a3c9,59:13.8,Running,42.271351,-71.175124,2719.663145,58,2026
502,5bb7b1b8b47971b69986ebda1e52eff3,03:54.6,Running,42.3278,-71.12521,9569.196537,117,2445
503,d851956a194115bb45021a13a93bdd1f,06:24.2,Running,42.23597,-71.15788,4674.951463,52,2026
504,c21328651f77db9669f8edc45bea6835,08:45.6,Running,42.23597,-71.15788,3470.027322,31,2026
505,74d2fc901d248f0369dc79214efe2c76,28:47.7,Running,42.39142,-71.11498,15887.44351,231,2144
506,8beb4c4c223a91b289cb18da9618315f,18:26.9,Running,42.33634,-71.18709,5066.350844,72,2459
507,260a032dd0f23765c611fd4738860220,20:09.8,Running,42.36664,-71.10731,4875.74387,77,2139
508,8f936607c29f939a4c619a792159337b,35:08.7,Running,42.342826,-71.073785,13062.96621,188,2118
509,1ad7b97c6bbbf34a99eaec81c3060c0d,34:01.8,Cycling,42.354116,-71.146056,4844.651922,469,2135
510,05689aa9e9a05055999865742d741bd8,57:44.3,Running,42.35716,-71.061232,5162.629212,75,2108
511,fbfb6423ba62c35f16e9a3a15055f653,11:12.1,Running,42.35716,-71.06126,5163.25305,65,2108
512,b516829640564099741277322da7fd27,07:29.1,Running,42.351832,-71.08998,3291.057905,469,2115
513,4f5f3f29404d2e4075f7e513e15cf445,24:33.8,Running,42.368602,-71.077401,4869.259859,23,2141
514,c89ac817122ac96f4e2495b4d19c315e,00:26.8,Running,42.28698,-71.0259,19162.39629,273,2171
515,f8f55847e7b3c4bc30c07906ee89ef46,49:34.7,Running,42.383875,-71.133907,13116.95176,83,2138
516,a85a12d2f80f95a07bbcfd719eb90775,57:48.0,Running,42.35186,-71.07071,4701.791644,78,2116
517,8ede2c822e4aec1fe35d03486cf40622,19:02.7,Running,42.33791,-71.07861,11775.87772,166,2118
518,c783380f441feae2085aaa2e66e93f8d,39:34.2,Cycling,42.349646,-71.124161,4364.224991,74,2446
519,e53c073c963287b54fe3d7dfb61ce1f1,06:55.0,Running,42.36276,-71.08986,4552.626793,51,2141
520,2603bf66127138184b9f6cd87c2dc544,43:14.1,Running,42.34727,-71.04359,7731.379561,90,2210
521,1c31669de620c8ff8c9f27f7e33f71ed,13:19.7,Running,42.36725,-71.10609,4306.592262,41,2139
522,fe28d63e484a964d8bf74de0dae80f15,03:54.8,Cycling,42.252931,-71.018059,1321.45255,3,2169
523,3ab7739b6b39fd304cf696b930371bb1,24:39.8,Running,42.391814,-71.115647,18857.69188,208,2144
524,a905da19753fbac0ceb80cd7c8358f76,34:23.0,Running,42.33463,-71.04751,7991.069503,134,2127
525,9703600fa274dc1f80cc8aa968410225,08:37.4,Running,42.347153,-71.044524,8878.58672,338,2210
526,97ba693ebc0244dafddd88f3b7b59c5e,10:54.0,Running,42.362772,-71.060887,8688.878148,182,2114
527,57ce2e8443f8fcf7f2bddee4bea316fe,39:43.1,Running,42.355957,-71.070974,1012.634543,3,2108
528,332cf82edb99c1a3bcc6dc9f1e2d7e96,51:26.2,Running,42.357588,-71.092762,3240.033254,17,2139
529,26ef713ad5a0fa2fffcf0f60c98821c0,55:06.4,Walking,42.350389,-71.111902,7963.103422,91,2215
530,973b4421f8e2ed90f8ce32c1df7cbc06,37:18.5,Running,42.380539,-71.070107,10932.35624,126,2129
531,bb4ee1684f3821d662829133a033d993,18:29.8,Running,42.338426,-71.019905,3311.613272,199,2127
532,2ac2d565e7fe428d7fed7635cb6fdf7a,28:23.6,Running,42.378972,-71.062709,11338.87882,67,2129
533,da42de38174b81b28e970f30831930df,51:39.0,Running,42.348821,-71.139638,16789.69073,47,2135
534,915c5fb47eb8088483debd2693b3e6d2,48:22.6,Running,42.34159,-71.14545,12862.46776,141,2135
535,90f5f887ed90c9a7ce4f0724725a06bb,52:20.2,Running,42.335014,-71.051753,8061.599739,12,2127
536,91fcb30e396822249103df05c1b52950,00:42.5,Cycling,42.36031,-71.06036,19676.59189,266,2108
537,b5214bbfd39fd4a4d40ba0c6eeb0ea22,12:53.3,Cycling,42.29782,-71.11619,2767.343743,24,2131
538,a74a2381cf5affad7cce3ee66d07f0fe,47:58.8,Running,42.39048,-71.11363,4260.525867,55,2144
539,6235a183515f89d00c1542a2b170207f,52:41.6,Cycling,42.36031,-71.06036,19676.59189,266,2108
540,9e583fdccbe236e3536d5b3b07c1aa60,02:34.5,Running,42.33814,-71.13968,30376.84913,314,2445
541,86e3a6a216361f8b9a7cb64e426fe908,02:08.5,Running,42.364383,-71.069496,6505.522448,294,2114
542,ab6b430b19949f1912ff345193b6fc97,23:35.9,Running,42.30205,-71.08948,21696.13734,448,2121
543,96ac282b302888420f618618746f53f2,31:51.1,Running,42.33506,-71.05531,8666.247636,156,2127
544,9d4780a613afcaf03049bd24d9a07c27,31:32.3,Running,42.28671,-71.0267,19526.3177,224,2171
545,1ae4e293e4b1fd1dd7f9ae8fac6ebe5b,14:03.8,Cycling,42.359208,-71.057558,7080.604418,483,2203
546,f17e7095db34a74963d7762c0dd921a4,57:59.4,Running,42.33175,-71.124033,9728.077623,168,2445
547,01759fd2e5d960f9e9e4bcc18cf242d9,00:10.2,Running,42.33298,-71.11884,9900.319681,168,2445
548,c1800dd660231bcff5fe19690dbb8147,45:02.7,Running,42.35195,-71.090039,5770.460292,6,2115
549,d1acfde8c3d240cced455ef8d26b20a6,11:38.2,Running,42.363343,-71.116007,9168.40867,31,2139
550,1cf0be597da560bd9660f07a29087e96,14:17.3,Running,42.367513,-71.116457,7291.322803,66,2138
551,b8858c44958a0b51e7570e141cc468fe,17:52.8,Running,42.367545,-71.116371,11338.12119,79,2138
552,0ff0fa8e8ed971077f9398147e074a8f,22:37.1,Cycling,42.364295,-71.115985,4010.643425,29,2139
553,1905b65855d5606921f4d161b8c269ea,09:28.2,Running,42.3634,-71.05722,5607.026655,101,2113
554,57a37185d929504b2248e8582398eacd,41:29.8,Running,42.369963,-71.037159,8253.992252,101,2128
555,31049f1f8f43a797a76323dda1e371e4,11:44.7,Running,42.33919,-71.0992,5193.980817,72,2115
556,f21c1abd6b5cfd6671844eeefdb649a0,33:20.1,Running,42.28671,-71.0267,20728.91118,258,2171
557,c1ee2fb14dbfaf4f217bdb8bcd6fb4be,57:25.5,Running,42.39142,-71.11498,8417.497513,109,2144
558,7c6daa4ffdb159cc7802da0ed67518ba,30:37.7,Running,42.33121,-71.04848,16189.87666,292,2127
559,84693106de1ee2b760c7765ad30746af,41:05.7,Running,42.364872,-71.185535,7998.112085,125,2472
560,8134b98fe5088cf6397e3ffa2d8e11df,47:53.7,Running,42.349138,-71.088374,11735.72367,167,2115
561,6bc18eedb744451565eafedb0c353ba2,12:26.3,Running,42.340415,-71.081595,32855.9418,463,2118
562,53cb7dd91a396cbe8e3ec96001411a1c,11:17.0,Running,42.33315,-71.05051,14456.71445,240,2127
563,cfb0c78086f8bfc1c38a422f591fa24b,06:58.4,Running,42.37066,-71.07711,15826.69582,134,2141
564,fbb91afd2c9b387c037efe705b25c0b2,25:48.3,Running,42.369601,-71.094248,8092.346416,185,2141
565,5620ee493e7c4a4342245af3127de929,22:05.4,Running,42.30684,-71.12779,19494.04421,314,2130
566,060543ebee72af09f2e1cf15e99bf223,06:32.8,Running,42.36085,-71.10188,3627.058952,49,2139
567,b2968f2154ddcc52b91be76c903251d5,34:05.7,Running,42.33912,-71.08027,5482.01977,78,2118
568,0bf12bffea609a344610f34b692bb4fa,44:51.1,Running,42.353461,-71.049518,16136.65041,124,2210
569,fdf3db1595ac072859dbd94a824e66f8,59:54.5,Running,42.413122,-71.134071,7121.815668,483,2474
570,044172359a125318fd8709d49ac43dfb,32:29.6,Running,42.335907,-71.071501,7445.489407,485,2118
571,8de28a465cee3252a0ecdbee193bebd5,35:06.9,Running,42.37966,-71.12467,11737.30629,159,2138
572,f3de23f0bbaebfdd466b2646292ece18,02:41.5,Running,42.378387,-71.063136,5202.92944,477,2129
573,a4bf706f051154818c89e4cf35fc2ced,37:26.1,Running,42.3353,-71.07854,3152.91318,52,2118
574,de94a05cd48851091125e90a24aaaf04,09:55.2,Running,42.3366,-71.14705,9751.688145,117,2445
575,aa913fcb44cf74875dfa70ff64bd8737,32:56.8,Running,42.33912,-71.08009,5426.743152,87,2118
576,f946551509ff6ac3d00a2f8b3ac1d00a,44:56.7,Running,42.361182,-71.088345,16471.18703,70,2142
577,40bdc1cad2e42e4778d57e2a55e30238,16:22.9,Running,42.361256,-71.088323,21900.05241,45,2142
578,6db3f7b415a1aab5a0a80d6ba15a5bc6,03:11.6,Running,42.32276,-71.06089,5527.377185,92,2125
579,0423f3082465734e229f70f494d71182,22:56.0,Cycling,42.404777,-71.111163,9166.893966,31,2155
580,aa8693b6f7513b631963f42df6665ee7,28:44.5,Running,42.361,-71.09629,7628.15541,48,2139
581,77c528d30456f53af0b527088abb1453,32:47.5,Running,42.393425,-71.133993,6524.403163,16,2140
582,5def8950853625fdf9843109ef09f5ea,40:34.4,Running,42.306475,-71.094919,21316.91997,232,2130
583,ee8c35c3d9a6fa3899c3f6556c4c6f12,14:44.4,Running,42.34957,-71.04906,7923.074169,129,2210
584,81c98fd29debbb2841f75b17b2a23f81,16:45.1,Running,42.349713,-71.049013,12059.83413,145,2210
585,3c7b2380d78a0b6c350354fc42bf6715,21:33.5,Running,42.364998,-71.10815,7098.572406,90,2139
586,35e6371df14c1d8ef4081b2cb9b4a36a,59:41.1,Running,42.306475,-71.094919,21316.91997,232,2130
587,2fccd415d5d7f5cafce8006d6216ad9b,02:25.5,Running,42.33814,-71.13968,32240.26022,286,2445
588,2e895345484c520f0efe948a92ccfb41,40:52.0,Running,42.356196,-71.069416,9424.398948,41,2108
589,6aff9abeb52cc0e8c393b6c6198cce3b,30:11.0,Running,42.33912,-71.08009,5351.788096,28,2118
590,75d578a6fb74bc7c89606d3ce1024d9b,20:05.7,Running,42.338426,-71.019905,3311.663961,199,2127
591,643b7cbf4ae396b661db207d4d20e1af,42:49.4,Running,42.3443,-71.05763,4776.749145,67,2127
592,b6ce4da064df79f6afded6a84df34d5f,44:29.7,Running,42.3468,-71.1043,7840.812375,66,2215
593,75a20b22679c1fda83ef02f8975fbd22,09:05.3,Running,42.33331,-71.05021,6380.287772,81,2127
594,4e19417eacf9992d21708ae4251d8ed9,17:46.3,Running,42.31541,-71.11719,8928.718707,203,2130
595,645f30086202b35729197c71adc2924b,41:12.6,Running,42.284397,-71.132877,5610.299621,23,2131
596,44c9e6b5dd293e6aeec2612fc186a400,20:14.8,Running,42.28481,-71.133478,9803.790379,50,2131
597,a8fbaf16ad0faa50fa2f8dc1d1e5e61b,31:40.3,Running,42.373363,-71.094302,8134.814375,26,2141
598,8e79b2b6776977bcf108e66cf39fd596,32:52.7,Running,42.370636,-71.07658,8265.071034,25,2141
599,decc547961c051b625e7ff85704081eb,53:25.2,Cycling,42.37664,-71.10436,4276.712705,25,2143
600,a96c3cbacfde77405d0774a08ac92593,54:20.1,Cycling,42.34875,-71.08565,4097.466832,28,2115
601,0db47dedd7d32f7148cede16ee998763,55:30.2,Cycling,42.34875,-71.08565,1786.986533,27,2115
602,35a931b511216e6014b0bfc958249479,56:39.2,Cycling,42.33819,-71.08992,5324.356422,40,2115
603,7bff418bc946fca1fe0545615c1d6841,03:46.6,Running,42.34641,-71.09039,8001.446373,206,2115
604,333a8b67cc66140e4ef947a267de65ba,58:51.2,Running,42.359031,-71.115604,12927.96098,43,2139
605,ea5c0c5877aad19dd04d30c99ced5cfc,37:09.4,Running,42.33928,-71.08026,18946.27348,316,2118
606,abf35c315d84ce0579bda9a0564b6d60,31:51.5,Running,42.34915,-71.03957,13341.16727,367,2210
607,d4a29936a44b24bede71e662e135fee9,58:12.3,Running,42.23692,-71.09936,5858.908823,59,2186
608,40c1594291d592ba049cbb4cde9a54da,59:41.1,Running,42.23685,-71.10132,5818.302727,93,2186
609,0c7db929ca5254632f38c7ecd7b67632,42:03.0,Running,42.356996,-71.092486,4374.331865,18,2142
610,44ac204022a0514014617c7436bf2842,43:46.0,Running,42.354934,-71.100082,7573.379394,24,2139
611,d4caad7bec58dd2cd9f4e0e9ef14527a,45:32.3,Running,42.357027,-71.092572,5961.2686,24,2139
612,a48bf4f741401702e0fee3f879800b1f,52:38.7,Walking,42.385138,-71.116049,1454.525585,144,2140
613,ab7b0729626a54c4b8266cf2ba3e989e,14:29.0,Running,42.386314,-71.13965,4929.043151,116,2138
614,3b7cbede25f36687146403c514002289,44:44.7,Running,42.387144,-71.137912,1913.102404,89,2138
615,14f4d3ab2403927b5acd1475df14e262,43:35.2,Running,42.348821,-71.13996,6203.713533,19,2135
616,86d493478150f02bb67e656d0e30e429,30:31.9,Running,42.356164,-71.114261,7125.47389,61,2139
617,e1cb3fc292783ff3b8468bb5ac82bd57,03:02.1,Running,42.376049,-71.120831,6025.680979,119,2138
618,e93f5445ea5019034b46fab448671245,03:29.3,Running,42.39226,-71.1125,5579.625464,52,2144
619,7e438be87bc4876e3be39b10374a5737,20:40.6,Running,42.383342,-71.137209,4834.229916,92,2138
620,d776fd7d9f5531e9297665a2c079fbf0,05:22.4,Cycling,42.31062,-71.10893,3681.498539,22,2130
621,1c5eb45673d4a555ee895d99951348f9,32:49.0,Running,42.35188,-71.07823,25839.58242,402,2116
622,c41e7c989f047a6ac2ccf82940a49845,13:27.8,Running,42.3634,-71.05722,5607.026655,101,2113
623,086c3ec0020a693406d2e20135276756,20:20.0,Running,42.39019,-71.108064,5150.237456,35,2143
624,b582569121ff2d0552afcd9fb14be66e,25:29.4,Running,42.35428,-71.05085,5925.772083,80,2210
625,b7d44a5d47cddd48c25c4254c75aab95,12:48.2,Running,42.349279,-71.095169,33979.67258,333,2215
626,6678f073ecbd7757b44fa4c62e96c77f,27:19.0,Running,42.357667,-71.115389,16126.19298,84,2139
627,575e434e103606fce94783f7d99dd429,39:45.1,Running,42.392167,-71.112338,6600.536749,52,2143
628,1d0f123f0ee3d0282f838a27de19be31,52:42.6,Running,42.392294,-71.112509,6850.281883,52,2144
629,bfa637f8b0a808f9277bea412c4da1d7,54:35.7,Running,42.36535,-71.11221,26749.21518,475,2139
630,755a7842199a106d8054c7d254956ab2,46:48.8,Running,42.36629,-71.08754,4999.760757,48,2141
631,a01d18466edb2a6e956ee718f3984f57,27:49.8,Running,42.342,-71.08605,4826.901272,103,2115
632,79089813f0aa9ca536f5d2d36e7f7800,19:15.9,Running,42.33835,-71.0203,3151.402451,54,2127
633,67f7ac4cdbfb790beb9a9dadf6c5e189,28:41.6,Running,42.35313,-71.08536,6344.920057,92,2116
634,09354395fdcbd2c17f16c5c7bc60d221,47:41.9,Running,42.351544,-71.118439,5237.574936,81,2215
635,db0cc77fa4603ccd17508652690c01a5,49:30.9,Running,42.35121,-71.11576,6143.955303,63,2215
636,8bc1f2da6e32a63c5dc52cf29e566d3f,51:52.2,Running,42.35115,-71.11533,9654.031967,127,2215
637,f8a9f5046acd3f66180e395be38b603d,54:42.2,Running,42.350149,-71.106798,9206.966733,92,2215
638,bded1631813c281107677a873fc7918b,40:59.0,Running,42.33395,-71.10429,15047.49721,239,2120
639,7e7e10fb9107ea3ad4899f63f81a7265,40:10.3,Running,42.31673,-71.11725,4628.874492,106,2130
640,32d74eeddfe0848fb56f581b755723d7,15:29.9,Running,42.357888,-71.115367,19720.71315,139,2139
641,25afa81790a00f46b0ce51c5948b4907,25:27.0,Running,42.321176,-71.116271,8828.432535,484,2130
642,a25522f54c4348b1a79f4c40755243d0,58:11.7,Running,42.39716,-71.24937,17183.33057,161,2451
643,d4cf66e44c985165abdf4eb5db1cadda,42:04.1,Running,42.348819,-71.097005,10906.28437,30,2215
644,64fc66a2b52f40f2e9d7a29f4ca5b1da,57:19.7,Running,42.388329,-71.143763,16884.12903,133,2138
645,9427e49c611d41b313ae385a28f97ac3,32:04.1,Running,42.33805,-71.10254,9265.785611,238,2115
646,a0a7eb99b6f5cfa58f5332945952ea60,44:51.8,Running,42.390218,-71.107976,7319.834794,58,2144
647,e3dcc80016b8683e21278d2ec2c1645a,55:51.6,Running,42.353792,-71.053584,3134.182189,23,2110
648,a6ce9daf9f2846e437366e8f893a050a,00:12.6,Running,42.351832,-71.08998,3291.057905,469,2115
649,d9a0e67a9a722fb0e09dbd3f15dde9d7,00:41.4,Running,42.348201,-71.08416,4707.078715,471,2199
650,4012011fdabda047e3f76ef8fee25703,00:18.3,Running,42.32862,-71.18739,5520.793209,78,2459
651,6762587b2a2534f37778b085e340b192,46:37.2,Running,42.343119,-71.117431,8358.692591,119,2446
652,1873ad9892901b3b67916980781ef48a,50:28.2,Running,42.369267,-71.073301,2450.330321,3,2141
653,7143955d21d55535e5c299dbc4d28c74,52:05.9,Running,42.380268,-71.089695,3059.687387,2,2143
654,7724926f9e6cd87d8dcba4ade092a1be,54:31.4,Running,42.369203,-71.073173,2816.581667,3,2141
655,ccc64f30fbd26cdd3a3fd5cf06d26445,52:18.5,Running,42.349171,-71.088618,10641.58166,57,2115
656,a97689add1e5617e0351b5b63be56043,34:25.0,Running,42.357417,-71.058405,25609.03728,135,2108
657,2329db718c642c04dbe58b71c936c51a,03:35.2,Running,42.34018,-71.07871,3156.110947,28,2118
658,61557b8f57906f85a0b93e02416f61b8,07:56.9,Running,42.37636,-71.11541,15545.16762,212,2138
659,4295a9f152df063571e6e1c681ce2388,41:10.0,Running,42.23505,-71.15203,6421.060919,89,2026
660,3bd0755c00696f7215e70a7c73505098,39:27.1,Walking,42.355814,-71.056808,2840.471263,309,2110
661,43752e4e8d9e2ce7dcdad60978366deb,59:04.3,Running,42.354256,-71.110774,13190.23524,51,2139
662,2032ac1be3b870307e3d81ef142e1571,54:26.8,Running,42.32349,-71.04799,4884.212135,96,2127
663,88dfd0f30fa678d1cc57e854b26ab6ad,02:55.7,Running,42.340174,-71.125145,5039.263831,121,2446
664,459a71d263c6f50ff4c1f1153ebb7e14,13:18.2,Running,42.336482,-71.152298,14296.13037,226,2135
665,52d32ba5f05cdb3d63f8d6e84b175f0c,34:25.4,Running,42.378305,-71.106482,6445.495051,94,2138
666,cad135b656b04a15779d816a3d64d72a,19:21.4,Running,42.35121,-71.16758,3236.741891,63,2135
667,4bce2e305255bc7a50f0c89636d03552,32:14.4,Walking,42.361032,-71.069906,18379.03584,96,2114
668,7d21591ebe459f7102f67b16feeb3503,52:30.1,Running,42.35404,-71.05868,6144.684566,116,2111
669,3af7c70da5923b7033c8d88f33a0a217,41:41.9,Running,42.34397,-71.09004,3222.910838,91,2115
670,bbd4fe9a3038846dcbd80da97259e673,33:04.2,Running,42.343524,-71.064257,12902.14735,37,2118
671,9f6c6c85436b28cd89eeb01f339cc69c,33:25.5,Running,42.340859,-71.067625,8164.696366,21,2118
672,26e02df6acd616bccb5684cccbbc2e9e,30:01.9,Running,42.35547,-71.06052,5116.624929,93,2111
673,821f68320427d0f7051504bf75ce7d86,36:29.2,Running,42.35716,-71.06126,5163.25305,65,2108
674,7dd472c75383d1c7dcfaba6f12d8bac8,44:28.0,Running,42.342672,-71.103561,5213.058844,58,2215
675,f65193852cf1c7fbfd86f47d89f18039,22:34.4,Running,42.35711,-71.06522,2456.591064,71,2108
676,17bb041f02ac9461555edee7d9eb871e,06:07.8,Running,42.31591,-71.03879,12007.14161,192,2125
677,04893218d660d501797a3e6bc5830cba,20:17.1,Running,42.389386,-71.138851,2281.778734,216,2138
678,59fb35bc5eaed46ddbd5b00bfe38f474,23:09.8,Running,42.35236,-71.05814,3456.992566,55,2111
679,6578229c16022c232e40bd25085ef45e,57:15.2,Running,42.34228,-71.103819,3342.010359,32,2215
680,0b4acfd33f58763943dd7ee28795792a,08:14.1,Running,42.37348,-71.15337,8477.759586,103,2472
681,b59872d69f7c21ad6f21f6385077e679,14:18.8,Running,42.37348,-71.15337,5645.192181,52,2472
682,01dd6fc18bd39820996cc6c173db12d9,15:47.8,Running,42.37528,-71.15564,2363.382897,32,2472
683,79fabcf42fb02c19c983187f93a40e81,12:59.9,Running,42.343503,-71.117142,6390.801537,86,2446
684,be3e7d1a869a871c2f6a824bc538a99b,45:08.3,Running,42.326417,-71.115961,4652.799967,10,2445
685,37144eb9db5b5814f555f23bc1db5df0,52:13.0,Running,42.341784,-71.146818,4854.886928,341,2135
686,67a955d163166db29b182f20a3b61233,48:28.3,Running,42.37796,-71.13009,5614.533987,115,2138
687,f93a55a1f59d9735ca91b3c9dc63f671,10:30.5,Running,42.23001,-71.14913,11705.62602,175,2026
688,2d2ce94f5e82346d9ed0f2596f2a1723,42:23.2,Running,42.392448,-71.106399,5013.287198,16,2144
689,6fe4101f66c5cd236e1e66eb657d25d9,25:28.4,Running,42.27153,-71.17529,4210.391002,69,2026
690,102049e661892692ca955d62690a02dd,28:45.4,Running,42.318606,-71.116777,12509.24184,39,2130
691,c1b47950b6246b913d124e741579da4a,30:46.1,Running,42.355948,-71.069335,5012.938347,27,2108
692,9079f4c7c0a3d1d99dc7c84fdfcaf92c,06:43.5,Running,42.352473,-71.064494,6989.899212,86,2116
693,c40d756f3858519f85a29434f71fea5f,56:36.0,Running,42.264557,-71.021189,5476.147799,477,2170
694,16474744b6181f7a172113d44102f747,58:35.9,Running,42.31591,-71.03879,9974.580158,143,2125
695,dbb6028b6dd81e8de67d61f867dfcc28,43:32.3,Running,42.373389,-71.098293,15868.24687,28,2139
696,cbbf15769d4ba60b06cb6ac68723f945,34:30.4,Running,42.33814,-71.13968,8074.527097,96,2445
697,940301919d6353be7909da5dfa5559a7,43:58.7,Running,42.33865,-71.08418,4830.373847,95,2118
698,9c9dc1cc7c78fc7dfec4fc1278d6a72a,57:37.0,Running,42.33967,-71.07956,6847.455444,72,2118
699,1e4c0c56fc131d3225d95d48e4ce0354,44:10.3,Running,42.36334,-71.08379,6175.3573,101,2142
700,456d54331eacc043fd7a6ca557ed76f2,50:50.0,Running,42.39718,-71.09968,10154.38845,121,2155
701,49430d07d9fa59ada3ef2d0cc6f6f6ee,59:59.1,Running,42.39718,-71.09968,16078.5862,147,2155
702,deef74d02f2b4ada5736567b77393384,05:37.7,Running,42.39718,-71.09968,20387.03472,228,2155
703,759596b09c59bd44222b387deab90580,18:53.0,Running,42.271663,-71.020306,5865.519086,478,2170
704,e7480d8e01dcb083efcdbb6ba01dbb10,43:47.2,Running,42.342991,-71.090269,6328.157621,485,2115
705,c0d630d4f21be63537581aec5729aded,46:12.1,Running,42.342245,-71.089968,5856.279674,113,2115
706,f3bb008324bbd675a423dc6abfe6bcac,52:08.8,Running,42.35291,-71.05627,6647.160116,93,2110
707,57bdaa482b541e51b8467534e1983840,32:32.7,Running,42.321782,-71.043743,4850.520693,406,2125
708,70dae016381613f8a10d65bed60c856f,43:45.0,Running,42.31648,-71.10826,5378.299981,103,2130
709,6d426943e4675c5caabebdaca6cca533,21:50.9,Running,42.392448,-71.106399,5013.287198,16,2144
710,b31fb22f5c4a6f1c7964fefbbd370203,22:54.1,Running,42.39455,-71.12134,4954.43213,22,2144
711,65aed2ab7fda5a7220222159c2483cb3,56:27.4,Running,42.356593,-71.063447,5007.640382,46,2108
712,756b6798162c92943f951ca8a46fc63e,06:24.7,Running,42.355814,-71.056808,2840.471263,309,2110
713,81e56996d4c9592ed64e66a03ffc7467,26:12.2,Running,42.33595,-71.15198,14078.67078,146,2135
714,92f4a7ff5bdf31e9ea33c2e218368a8b,43:10.7,Running,42.339139,-71.135098,15837.56118,293,2446
715,67031bd56b039bef794d424abc76aafe,50:28.4,Running,42.35186,-71.07084,11149.19962,183,2116
716,b75bb54dd74ccafeb0aff6379f0976f8,55:16.4,Running,42.3366,-71.14705,18628.8095,163,2445
717,5446be30f08a4f785a626947c6337789,54:16.7,Running,42.356665,-71.075649,6430.098828,152,2114
718,ffaf8d3a9807adcac48c052a48819cc3,40:31.7,Running,42.316403,-71.108963,5083.307365,418,2130
719,c07083ded3448761886125b87163c540,59:23.0,Running,42.347153,-71.044524,16449.99416,287,2210
720,9d6dfe78811a5c74f2ff8d850ec21fbe,40:36.8,Running,42.356197,-71.114602,13439.30028,91,2139
721,1c2acb4386022bb8f040521f295481f8,21:37.2,Running,42.381272,-71.094346,3160.255179,43,2143
722,b569593d417b7ec51bf76175258ced16,35:10.1,Running,42.359143,-71.059719,8641.08709,38,2108
723,f6c336b5ac69f0150e8268ce8223b90e,52:35.4,Running,42.33285,-71.17278,4811.53318,63,2467
724,818521ff44e46abb3caef47fc3a765b8,30:24.2,Running,42.346267,-71.042139,8361.927315,70,2210
725,2a3bea5583b84381f912f917ec162d47,23:08.2,Running,42.30553,-71.1184,6458.323016,136,2130
726,717b2daebd0343bcfcf41581ed1f1441,25:31.8,Cycling,42.30539,-71.11619,6200.358576,98,2130
727,bd0bb17aa6e67f9d53e56bb899d70e60,54:40.0,Running,42.33865,-71.08418,4834.067212,88,2118
728,b659be674d6e177e054976b58404a651,55:54.3,Running,42.36974,-71.11995,7992.718119,103,2138
729,396f53acdbbe49bc9dffe3c37faed271,50:35.3,Running,42.35511,-71.11036,12821.72114,165,2139
730,d479cf47a1c303735abced6e5ef9f0cd,07:26.8,Running,42.27153,-71.17529,1435.311002,23,2026
731,de8e6c7a958b4540aa62ed681e84b09b,13:16.7,Running,42.34186,-71.08614,12796.76683,243,2115
732,a5dd3c501e3f32f1f817d1385830a994,45:36.2,Running,42.343984,-71.128881,10118.94927,166,2446
733,90b3df482d17778e3d694ae17cea38fd,17:24.2,Running,42.35892,-71.11576,12326.04522,163,2139
734,e661d0ab86f17ffb35b3e7ef1babf2bb,24:50.3,Running,42.357819,-71.115594,14043.96497,182,2139
735,87cf9a63aa0af47aaf8173cd48299dbc,28:02.2,Running,42.35859,-71.11555,11434.91592,154,2139
736,30c3d77701818a57f9b753e4129b62a5,46:07.8,Running,42.3928,-71.11519,5355.039139,77,2144
737,ccbc6abe9e01592b1b7d63898ba70035,30:09.8,Running,42.3303,-71.04411,4954.125355,111,2127
738,263f17d15b51579922ac8560dd71d7d0,02:16.2,Running,42.33235,-71.02085,3418.211198,74,2127
739,efb2158fe4bd0eb01123687d4c7b8ba4,48:19.7,Cycling,42.36031,-71.06036,19676.59189,266,2108
740,f8a244a2c1c0632ece9096f5d1adb84f,27:22.5,Running,42.35223,-71.0887,9581.683973,135,2115
741,6c182bbd88f8316659d6f012467e4128,05:18.3,Running,42.342628,-71.124159,13360.96644,271,2446
742,ea397104ecaeee85b6884a3acb617a4d,21:06.0,Running,42.273024,-71.016255,9610.864098,196,2170
743,93a0a14aea47ffdeebf98079e5d62c7e,29:11.9,Running,42.374816,-71.050534,1615.032287,17,2129
744,6bee35853c976971b685c63a54d4887c,59:24.3,Running,42.363768,-71.092473,7554.261549,474,2139
745,f34858c21512c9a4d30b065ddaa849d8,00:19.2,Running,42.364187,-71.092995,5698.864029,341,2139
746,ffed428bcbc50b53af30d732ba939b65,09:04.5,Running,42.31217,-71.18464,4882.172916,64,2459
747,2458a5cbb4862f148d658985e85ac936,14:09.9,Running,42.31217,-71.18464,6958.018577,117,2459
748,f98fe334530407b7e574558b5353b637,56:30.9,Walking,42.289586,-71.129877,2132.631287,30,2131
749,f6c254058a516cb38247f4abc0e8b13a,01:35.4,Running,42.2896,-71.12982,4378.530216,101,2131
750,25e4b99d2dbca88de22a24606dd78bf0,56:35.0,Running,42.33464,-71.12604,3078.009105,64,2445
751,ee3829e0262c1fa9ce1bb7b77f89606c,30:02.4,Running,42.258283,-71.005048,2808.78153,17,2169
752,c44f5aa62eaec411a8c270ede848dc81,05:33.6,Running,42.35655,-71.07459,4877.319983,101,2114
753,491d1cc6481b69a8586b6acfb0fb3110,57:32.6,Running,42.33077,-71.031216,3744.34318,17,2127
754,a3df136b14f707a2b803cc91e7bc001a,34:23.4,Running,42.34641,-71.08823,8092.829468,105,2115
755,3dbe465908d2396829af2a407749ede2,11:11.6,Running,42.360889,-71.082527,4339.836609,371,2142
756,490c34c900f2b4dd6c6afa3e2c551ead,42:40.5,Running,42.342098,-71.144273,4742.199994,453,2135
757,d337fd8780f83388bf8f4fcbddd28c95,49:44.8,Running,42.371798,-71.122999,10090.39524,28,2138
758,e13d87979405b394e4c52a7bed942847,25:09.3,Running,42.342098,-71.144273,4742.199994,453,2135
759,2b64f4c36187dfa3d671d3792c4f37ca,00:27.4,Running,42.352508,-71.083629,5021.903347,61,2116
760,4289a05fa33477140099940d410483e6,01:14.2,Running,42.3359,-71.15238,23978.57074,203,2135
761,2a9ae1dfa3cea0867d09ad64e7b98657,09:09.1,Running,42.35186,-71.07084,25160.73059,399,2116
762,fb880300be1e54ad3c5699b2a0d25fd0,20:02.5,Running,42.33719,-71.15221,29003.69449,373,2135
763,1c660ca2165aa405c32928f1abc2c1e6,33:55.3,Running,42.35186,-71.07084,31626.72663,513,2116
764,42418625497ecefd4710ba42b5704919,47:14.3,Running,42.3366,-71.14705,19332.40332,292,2445
765,6a0c988ab0897aeb2a388678d0a4dc38,02:19.2,Running,42.3366,-71.14705,12240.03948,150,2445
766,32965eaa51351a113d1eccf98bf415cf,32:10.9,Running,42.34909,-71.15739,5257.920177,80,2135
767,7ce657898b3e67f25c379e48ce5d1460,37:14.6,Running,42.35337,-71.13564,5242.095582,50,2134
768,ae94325f7e19dffcd6c0d9386dd03e35,21:11.2,Running,42.347494,-71.140381,9915.499166,61,2135
769,ee02d8d501eeb940cfc08435d35d1e36,17:49.7,Running,42.342188,-71.079812,11958.31987,59,2118
770,b2544b49966562b47354d92ef714f8ef,25:43.0,Running,42.363187,-71.051576,11299.27368,285,2110
771,1da5d68d785809c3d9919421ef2751c0,19:03.1,Running,42.363789,-71.051142,14199.83992,302,2110
772,30cfa17c71190ec03c973932fcd964b0,00:52.3,Running,42.349001,-71.152573,4973.414822,476,2135
773,f9f31518184dbc4118c75edb3b9e1a23,03:22.9,Running,42.35305,-71.08575,17688.64364,269,2116
774,c3e9fe3040508db2c3f6b52956e7dfce,38:20.8,Running,42.340696,-71.048538,8239.488967,52,2210
775,1ba46b765f112a1b3fae1b4d95cd4a88,16:09.9,Running,42.357686,-71.073541,11679.10018,232,2114
776,270cc07c9366fef3b08a6db64ba08fa4,19:10.3,Running,42.37206,-71.06159,16612.84819,264,2129
777,ab9ca80e1530c6d5744ee29c0acc36d5,44:10.2,Running,42.33814,-71.13968,10450.49647,83,2445
778,3f8d30c42cd3a39db93264dc34d192ee,25:24.5,Running,42.358003,-71.062543,6111.236194,9,2108
779,c22f0ee707ec6cc533855da27fef86a0,33:09.0,Running,42.34202,-71.12124,7447.093568,73,2446
780,a723d9ad5266c02c6bec8eecc8ec0195,33:39.8,Running,42.341423,-71.123656,4836.358926,38,2446
781,5be4ec2626aaeb7434aa0afcc8609704,47:47.5,Running,42.342596,-71.117326,6359.659104,119,2446
782,7cae525178308ef96e95f06db24dd9ec,31:05.1,Running,42.34889,-71.12977,12263.99602,131,2134
783,936fd60b9aff93dac738347246be3161,21:54.4,Running,42.3544,-71.07465,10548.73362,221,2116
784,940cfe247275c12fa14f4767510f88a3,47:20.4,Running,42.3605,-71.1647,5060.755249,87,2472
785,5a147861f3d98362a2eaeb0bb6f9812e,20:26.2,Running,42.38943,-71.11435,4373.988779,82,2144
786,abac8d20f5790bf8c958881949229d87,04:51.4,Running,42.36395,-71.08341,5806.370803,86,2142
787,7152550c80e85c2ef9ec2503aa20b96f,48:14.2,Walking,42.36638,-71.08201,8409.945137,100,2142
788,410a750b38cd1ef3d9b10b1b5758b017,46:47.5,Running,42.36165,-71.10355,4601.061246,64,2139
789,6323be5150be33be8330e010ec3dffdb,10:01.8,Running,42.35509,-71.11023,5094.631106,89,2139
790,666f4eb4226ba7b6b2b7ec0227ae8a8b,20:04.8,Running,42.36384,-71.08347,3965.215814,22,2142
791,db6f6fc47dca39809ed6253bd99ec234,52:51.2,Walking,42.33316,-71.10987,1721.706075,18,2115
792,9e721a44d571412a420ed60e06898658,38:33.1,Running,42.3366,-71.14705,17126.7833,134,2445
793,b720d4695e1fbc65ebd7dabce7bbcd94,01:17.0,Running,42.340731,-71.10003,19271.78823,162,2115
794,99a78cb09fee7ec194e2c0de86eb00c6,05:46.7,Running,42.379904,-71.150116,3603.824507,30,2138
795,bbd05bd3d454cccd62f57c8d1d170792,07:30.0,Running,42.35877,-71.11573,9035.319023,134,2139
796,7897cf172d3b9ff921c171fbe452635f,07:28.5,Running,42.38874,-71.11111,6489.260371,67,2143
797,012b2c02121249091d72c7f588b4e3dc,51:38.3,Running,42.362638,-71.099013,8464.694993,43,2139
798,b4236b9b0f4f06937b167658997cfae3,27:07.6,Running,42.37831,-71.06065,7245.571735,116,2129
799,3e7ebd746a79e19b9895d1edc98fa5b3,19:55.8,Walking,42.357051,-71.069965,1866.191025,19,2114
800,ffa24f947ba16e43e439c2be881704ae,21:59.9,Walking,42.35577,-71.0713,3426.407694,32,2108
801,dafa610c8afced774a465e4d01a29041,23:48.6,Running,42.372932,-71.121633,4765.99606,59,2138
802,e464754848d3d92d5d9bcb3e344b4c00,12:57.1,Running,42.35951,-71.0728,8045.922096,159,2114
803,7146d1c3cd6d7673fecd59f67a3e1a8e,49:43.4,Running,42.379413,-71.100886,4851.863421,120,2143
804,f5dfd8da9601e55ea40dece3ec6fd20a,52:32.9,Running,42.392448,-71.106399,5013.287198,16,2144
805,af3d13696a63275c605f7815efb2cc5e,09:33.8,Running,42.376365,-71.139664,1840.420254,24,2138
806,a3b7ac918eae943a1b68ee9acd42864c,49:57.9,Running,42.375901,-71.124489,10037.05201,48,2138
807,55b580050413e7126a70e97d7441737d,15:44.6,Running,42.33455,-71.24375,19320.83189,191,2466
808,01d3bdc8500f0993356ad6ca6d62d2cc,43:40.2,Running,42.387144,-71.140938,13388.10997,139,2138
809,40c3c2664223b9bae2de474521cc9000,51:25.8,Running,42.341032,-71.100201,24427.68302,285,2215
810,48b0fd5c24c842a4120982519e5f658b,11:38.6,Running,42.35022,-71.16937,8271.015891,110,2135
811,ff39a589fc40c3ac17bfec22f936315e,08:38.2,Running,42.363853,-71.057563,8739.364628,43,2113
812,50c3ab326b7abd0c12e3e41402436392,48:26.4,Running,42.33851,-71.13698,5657.290278,78,2445
813,56126c60fc7bb3d1f9964821c0b6cdbd,52:12.6,Running,42.338076,-71.136107,3554.610459,45,2445
814,82d69690f04ea320d310329542e11f22,52:52.3,Running,42.33809,-71.13608,2004.375898,17,2445
815,9ef1054071e88c04c5d46fb3fef3845d,36:32.0,Running,42.34586,-71.07524,6764.681596,64,2116
816,92fbcdb2e4e00a471a6a6f935438212a,42:01.4,Running,42.3634,-71.05722,5607.026655,101,2113
817,a15d741cd5693770220f9c6413e42f3d,43:21.2,Running,42.33814,-71.13968,30376.84913,314,2445
818,057c352d72d2b28d445e514d89ed35fd,43:58.4,Running,42.35186,-71.07084,31626.72663,513,2116
819,470baa6bd4d22f7f23405d1e6b7da79a,47:47.6,Running,42.35291,-71.05627,6647.160116,93,2110
820,1bffa643d378a78bb7acd3a2f6c6eb0e,48:00.1,Running,42.36577,-71.05117,5765.424665,125,2109
821,89ed094233709c920a384e4d137ac870,32:17.8,Running,42.33719,-71.15221,29003.69449,373,2135
822,ea3b74c1237128d2ae7305e3016f8af8,02:03.6,Running,42.31886,-71.04435,4260.367138,68,2125
823,5af371d46f2f477e169423d729ab5655,08:12.0,Running,42.3154,-71.03797,3106.909071,60,2125
824,f9ca1ade505bd20fe2703c1f5ba58a50,12:03.7,Running,42.375717,-71.111563,10238.31563,484,2138
825,6657c536cdb55b59093937c93ca7ecd3,35:38.6,Running,42.345395,-71.081724,6603.285268,18,2116
826,f91d1f98ac96c526ce03637437098bab,38:31.2,Running,42.346204,-71.084685,7070.604576,23,2199
827,89c9eaddff1cb7311e7698a28db3857f,42:11.2,Running,42.345443,-71.081788,8093.823445,34,2199
828,ea75adff42b69e4227b9523b4935651d,56:26.0,Running,42.355863,-71.097771,5528.16428,124,2139
829,34d72b7419610baf929219e64b550a67,53:54.1,Running,42.35502,-71.1104,13094.52581,297,2139
830,1d9c1381887c33e9a247c2a34663780e,10:33.7,Running,42.31353,-71.03501,7690.772858,114,2125
831,dd485f9a9baaeb21e5172de59e0bfd2f,20:37.0,Running,42.339268,-71.080409,10254.46067,12,2118
832,a90bf5ff3fce231d7b346c5db3ea00f6,24:48.2,Running,42.35546,-71.06488,24625.67027,246,2108
833,faccd107950e3526d4bdebcca176c2aa,05:28.8,Running,42.39706,-71.12352,48626.20448,514,2144
834,ed98126d41a41b14763f431f541e5533,31:31.2,Running,42.35337,-71.13564,5242.095582,50,2134
835,920a10cbc36aad9695bb90049f0e4bc0,32:31.6,Running,42.349001,-71.152573,4973.414822,476,2135
836,d5fdf6445f62929683f988bb40eaf49b,33:19.6,Running,42.348575,-71.137601,8176.214474,71,2134
837,4bcf69d1162778013b9a4a75a020b8d4,34:16.6,Running,42.349001,-71.152573,4973.414822,476,2135
838,3ade7c9cab67fe5f86984fa7e22fefec,35:19.4,Running,42.348575,-71.137601,8176.214474,71,2134
839,5337fdd5fbe6d9323afb56ecbe72c7fe,36:00.1,Running,42.349001,-71.152573,4973.414822,476,2135
840,6dc8e825189d56baf1848fdb2be86e61,37:11.5,Running,42.348575,-71.137601,8176.214474,71,2134
841,9a542b85a9a8d66d99682223bbdb1fb1,09:53.7,Running,42.339367,-71.080389,4529.897453,6,2118
842,0d2a6165ef6379baea8afb379a5cec48,00:28.5,Running,42.343614,-71.072384,8975.605878,24,2118
843,4db616c8b564a38791bdce73cabd8048,08:54.8,Running,42.344375,-71.06702,11360.49845,27,2118
844,fe1b3ae7cefb0e90b30e3bfeb378c4fe,29:57.0,Running,42.345866,-71.075259,10779.29022,27,2116
845,ed964675312901499cf47cb3cfea36b3,01:59.4,Running,42.350167,-71.069961,8142.358284,20,2116
846,935487af51070572ed8bc00750540e04,41:52.6,Running,42.34826,-71.14015,14907.97402,94,2135
847,00642960d8758266093822243a763fea,42:14.8,Running,42.381201,-71.070926,7369.337963,33,2129
848,f271fca8ac9525a1694736b23bcadfcb,51:31.3,Running,42.381399,-71.071129,10672.80865,53,2129
849,f23c729c7cf37a60725a77dc914ed7cb,05:21.0,Running,42.355817,-71.11355,11379.73554,147,2139
850,27b7a5d18152dc9eb4b4226fe0406ada,57:50.1,Running,42.39718,-71.09968,12593.55444,149,2155
851,9ef86c092ce15e21f71dbed6c33ff457,46:55.5,Running,42.36118,-71.06264,9281.15389,122,2114
852,01194c2c191606477a52bd2c4ac93614,25:47.1,Running,42.35417,-71.07694,11368.29467,159,2116
853,d1ce7b80f7311a5e7cf822930e2c0137,22:25.7,Running,42.38948,-71.11432,9477.287788,124,2144
854,adee6eb4807c3fd02079f2d41799c667,42:55.6,Running,42.34457,-71.07051,6606.088445,66,2118
855,08a332a6e521c73335810dabfd6a2c68,51:19.7,Running,42.345041,-71.070023,8470.163806,29,2118
856,fcd74b0d4951623a428a9706b47ca21c,48:14.6,Running,42.3494,-71.04687,5907.221273,88,2210
857,a740e28c82aa7429c64032f1ca5d1650,52:13.7,Running,42.3477,-71.04498,8230.876444,210,2210
858,9dc69cf0743efb17a1d1d9e5cef47dfb,28:40.3,Running,42.35509,-71.11023,11207.97448,182,2139
859,e70e945a856466d742aa7886f83f8fe0,44:19.5,Running,42.33979,-71.12091,6663.714996,92,2446
860,e56ababaf06ee72a0370a78c4f3c6c57,24:26.4,Running,42.34641,-71.08823,6399.898679,107,2115
861,cfb0a2aaded7ca11976c6b29dddaaccc,27:45.3,Running,42.35662,-71.07167,4451.891479,93,2108
862,716422fbf32d464110675d4df2d37613,56:56.5,Running,42.36547,-71.08613,4773.093751,29,2141
863,e3dc74413bb379ff7d816229fcb674d2,27:06.5,Running,42.39572,-71.13835,6534.793127,133,2140
864,583f0f85fe97a883a3c00ad30975f012,39:53.3,Running,42.339541,-71.09061,7337.424511,59,2115
865,77522e1b88dc3dbae412e188fe977a66,44:08.3,Running,42.34334,-71.085899,10249.50816,184,2115
866,280df13678bb386988b2ad3ad6803675,07:42.1,Running,42.322534,-71.196147,6907.071473,37,2459
867,54402172dd022c9bd5b9c792f4eeeb29,59:18.6,Running,42.322701,-71.196078,10481.21291,246,2459
868,57ccad1c7f99dbcfd16cc0aee5d50fbd,48:54.6,Running,42.35509,-71.11023,27452.73198,571,2139
869,2bdab512448559e3915e4f0e6f1e0732,55:17.1,Running,42.3434,-71.06843,12550.48924,177,2118
870,1acce458cb3b556df8cd2e71af4ea5a2,52:16.8,Running,42.37796,-71.13009,7999.408999,108,2138
871,5bc41f383f5e1fa88646eee235e10d21,34:13.8,Running,42.338829,-71.18678,15335.06677,201,2459
872,cf106b51e496f03d4bb2d4a1ec55477e,38:46.8,Running,42.33878,-71.18813,6952.939392,166,2459
873,76dabb50ad16aca4d60d6e0fa92cf1fd,04:32.6,Running,42.35106,-71.10064,8725.357683,163,2215
874,cb9903d4318bc4b50e46827a0362bd9e,59:46.9,Running,42.317745,-71.117157,32242.38651,307,2130
875,efa7cd14deb7629fe7bfc768df19a631,17:55.8,Running,42.365724,-71.091014,6034.698358,13,2139
876,d047dcecbca631c13dafe83f5eb16bcf,25:35.9,Running,42.37796,-71.13009,4827.594946,61,2138
877,547c314d634467e79cea09fd298c8567,52:36.1,Running,42.38874,-71.11111,8423.092777,108,2143
878,b9c004a1744f49397892454381d13df4,13:12.4,Running,42.354323,-71.058957,3788.864064,10,2111
879,9cf427b9020fbbb7badcdcc578f3508e,35:39.9,Running,42.34915,-71.03957,13341.11338,367,2210
880,8c3467059e8d7fc3ea6c8b7bb90332f8,40:04.8,Running,42.306269,-71.110671,235.5189314,15,2130
881,378357e1d72ef11693bd5780206026e3,28:05.1,Running,42.3663,-71.09178,4991.884549,55,2139
882,6f8ccc8b473fdc37e80bb1e9c8dd4b33,48:09.6,Running,42.35106,-71.10064,7180.943324,134,2215
883,1bf18a9c4ee93a3474b2527b74ede890,49:45.4,Running,42.35078,-71.10025,3930.360428,70,2215
884,1a41f9bfac1202dd9aaad74b086dd898,21:27.1,Running,42.339267,-71.080194,12805.78462,18,2118
885,3749aa535ebea9847b366b42af5f60c8,03:01.0,Running,42.33455,-71.243749,18016.37735,186,2466
886,910e741f794f6ec1dc4b14055a28b293,11:26.8,Running,42.35157,-71.050369,9721.851694,142,2210
887,6773cf31b06b5d3f52cdf4cace5d3330,09:09.2,Running,42.38874,-71.11111,10695.94314,113,2143
888,41c08ac2f475e7a574971a4b3fa4bc1a,23:45.6,Running,42.3397,-71.07462,20761.49734,297,2118
889,e65b4584d1685bdcc21c30d7b439f802,57:55.3,Running,42.35109,-71.04388,19706.0019,220,2210
890,e12233be6b6b172e0cfd82c00bace6a0,14:19.1,Running,42.342154,-71.070624,8113.669377,30,2118
891,465ff8bdc733e01ed1c57028955437ff,27:29.9,Walking,42.342929,-71.09697,951.3016653,6,2215
892,d9be9ffc3f9542250d784c76c5e96d4b,30:24.1,Walking,42.343952,-71.094641,942.0176317,13,2115
893,c9e7f1ef12a65531cebb19648b95f206,40:20.3,Running,42.35483,-71.07473,5739.281064,42,2116
894,905d7578e2878a2f3a71f2f1a6186644,58:17.5,Running,42.34975,-71.086169,2999.411232,13,2115
895,61e2c831810bedae0a596c62b0807ac0,20:13.9,Running,42.3434,-71.06843,8411.851205,116,2118
896,c128d5003b46d0b11571877152ec853b,36:15.5,Running,42.35632,-71.162306,5320.5539,63,2135
897,8d9316b8464c833b79bb1b5746f3a1a2,05:42.3,Running,42.343278,-71.085833,947.3801018,18,2115
898,057e664ca7db5f01bbdd6a529a03a6cc,14:02.4,Walking,42.389947,-71.145998,958.0617573,28,2138
899,9a25a05d22dca948cca97824bc5fda67,54:43.9,Running,42.365469,-71.091013,10565.401,32,2139
900,aee4dbbbb0e6ddbac7260d98b73bc8ab,01:09.6,Running,42.36873,-71.1147,13801.94092,203,2138
901,244f38f63a7e26e7189876b59dabeef3,27:56.4,Running,42.34095,-71.07734,13936.61736,199,2118
902,03194cfc911eda43e264b007085b1911,33:00.6,Cycling,42.363281,-71.097098,3172.053559,7,2139
903,4b49b835e2853097f5e610783fefd8eb,33:38.8,Cycling,42.370447,-71.11435,3184.548052,7,2138
904,c71e0b630747a7a126e2c9f18cabfbc1,10:04.6,Running,42.276082,-71.162231,5587.039574,481,2132
905,3c086ff955d59c7592cad10972b4897f,53:03.9,Running,42.30804,-71.12469,16111.56255,211,2130
906,3c38c15381d7551cbd864776dd48df38,56:48.9,Running,42.38416,-71.14118,4979.658749,116,2138
907,8635c2994bb09794ae3a2631f28769fd,08:04.0,Cycling,42.40022,-71.12418,19665.68519,223,2144
908,750b3896f8645556cf982cee9fabfd33,13:18.3,Running,42.310346,-71.097574,1613.259845,155,2130
909,9a8d8f745bb1126dc1f18ced95b962c8,40:10.2,Cycling,42.35712,-71.092539,31104.22125,506,2139
910,be24941671f07888f4e852211367c5c9,48:00.9,Running,42.3393,-71.06535,5405.036312,71,2118
911,d282fd8dcd83c3048fd1e325214d8fef,41:13.4,Running,42.363397,-71.183364,4907.01646,31,2472
912,9335cb932aa7b59c7bb8e6a9ba2c91cf,48:17.0,Running,42.370055,-71.193342,7241.614211,51,2472
913,03c9c4f19e7a3daaad7f0ecdfd509f0a,56:20.6,Running,42.36248,-71.06173,7457.667655,188,2114
914,2ecb33cf9c10e2616722c147ecdbc251,28:20.2,Running,42.356092,-71.149064,5208.863181,33,2135
915,f426000f0f4c5adebe60924fcbfc6f5a,47:45.7,Running,42.352842,-71.07869,8321.252147,17,2116
916,817f8cb17255e91b27b4c09297218a8b,16:48.0,Running,42.23683,-71.099069,6425.734282,75,2186
917,4ad95ca11aa3d6c7d7bbe1c1cad5ab7b,34:14.2,Running,42.35078,-71.10025,6155.931458,85,2215
918,b95e7ca016d34a3adfa319ea78d043f9,28:30.9,Running,42.36881,-71.11535,13207.20001,219,2138
919,0b784c68621d3f03f66de15c29208819,31:20.4,Running,42.36873,-71.1147,21209.73999,328,2138
920,9493d35c97c18ee3814ddb0d27db613b,25:08.7,Running,42.378299,-71.053006,4704.164895,3,2129
921,17a98bfcf9c4f7525c9a1040dc88875f,43:36.4,Running,42.342984,-71.094501,1118.463903,23,2115
922,886a0aa422a1324ab13e5df96c6659f0,51:04.2,Running,42.350026,-71.140077,456.613911,11,2135
923,ab21f2531e882e9aa2e31985e7a58443,53:49.9,Walking,42.352531,-71.140517,741.6985895,16,2134
924,d5cbad311b669d47b6b443471c56cf98,57:08.1,Running,42.370972,-71.110862,7220.565994,146,2138
925,3c587b526a6aafb17258420a0e970fc1,09:54.5,Running,42.397503,-71.130132,5090.773816,34,2140
926,e8722e2e1570126807618db06771804f,27:52.7,Running,42.34415,-71.089914,5105.153881,251,2115
927,3525955a65ef09d1d567d54ae817c205,29:11.9,Running,42.342845,-71.090126,5786.108165,485,2115
928,f34be60c1c848c17346f62c0e70657ab,40:17.9,Running,42.34136,-71.07661,6361.890123,33,2118
929,e5d6c8da02be14f171914974636c586c,54:02.0,Running,42.342188,-71.079812,11958.55809,59,2118
930,11b34a6fc0f7626f797ba3cfe200ae47,16:03.0,Running,42.36497,-71.10902,4065.037473,59,2139
931,55f871f4006dd4941a0f7e575567d94a,31:37.6,Running,42.339298,-71.080193,14738.60786,193,2118
932,852aca1a49784e4381674e41eb7fdcf4,14:06.6,Running,42.33814,-71.13968,28328.02058,248,2445
933,f8f59a9e16550b8c53df8b0b234557a1,04:55.7,Running,42.32262,-71.1961,5182.140906,96,2459
934,80d3bb44dee5819feba3651722ea97db,00:47.3,Running,42.30046,-71.10144,8549.593733,203,2130
935,274a70793107e928dec37df02e7c0f74,11:44.1,Running,42.325367,-71.25757,21064.60711,314,2462
936,f9eca256a90631d1fccc7cbc6f3b86ea,46:11.1,Running,42.369539,-71.120516,4948.612823,51,2138
937,35a8cf2bbca12e1180ed4b1a95bfd49b,55:39.2,Running,42.324994,-71.19604,9692.383732,115,2459
938,7a92a13bf3c1010fd43ab8c6614b7726,55:02.9,Cycling,42.32619,-71.12342,21953.92012,394,2445
939,c5a9240733db5ee196eba4916f4d3698,13:24.2,Running,42.354335,-71.078791,4603.939634,17,2116
940,cc5409656ff9294e7617355f8a25512d,59:38.6,Running,42.370168,-71.123972,8371.613426,126,2138
941,8321922406188431e7e995fe3833f337,47:24.5,Running,42.350579,-71.075111,8957.088727,109,2116
942,e6a6fcf7d047ea2c8122678de99eec5c,52:20.8,Running,42.38874,-71.11111,9089.821891,131,2143
943,47b3716e3d0ab2653c488281945e13e7,24:25.2,Running,42.339042,-71.099082,1098.953178,23,2115
944,1d3e3a457afc49ddc3d317a324fdaed6,47:24.7,Running,42.33928,-71.08026,18945.90141,316,2118
945,bdfdea8982d1b4d39abec61c83e02e23,15:39.6,Running,42.335562,-71.044205,16179.79719,157,2127
946,ba1980b91da03946e74d8d52ab8dc78b,49:53.0,Running,42.32972,-71.037249,7186.451504,195,2127
947,ac971cf931cb88fbf326452bab43ebcd,26:45.7,Walking,42.331826,-71.11385,4873.202355,80,2445
948,4d02c251e2a6a9d2010efa5a6d1c97ea,28:54.3,Walking,42.35068,-71.06801,2764.568516,41,2116
949,4604fb93131667dcea797d27d13746b4,55:49.4,Running,42.360258,-71.070016,4997.359336,16,2114
950,697fd38c8a2b330c9d64906a962b4510,29:37.7,Running,42.36204,-71.16648,7424.167669,121,2472
951,ce52eb9793a62c631e40912612e1e518,32:34.9,Running,42.36204,-71.16648,11336.17068,183,2472
952,c194ee9febff14d4872abbb8f59acb9e,07:07.6,Running,42.32721,-71.12425,10304.51194,216,2445
953,a4067e1569c46501a436efec30b65a12,56:39.2,Walking,42.33123,-71.11567,1575.605626,19,2445
954,e879fcdad35bba6d06867b34e4f7fcf7,32:53.2,Running,42.39142,-71.11498,8260.839448,108,2144
955,769c9e37676d32e31acfd3d9dbdb1234,24:54.0,Running,42.33204,-71.1121,5546.168869,115,2115
956,85db26d6b36e63d581cd782b74aaf802,26:00.9,Running,42.37497,-71.14803,4024.346874,68,2138
957,d7e2303886145422dd412b34ae94e8da,28:05.4,Walking,42.35768,-71.06336,1753.545848,60,2108
958,8a8e0ea6ded08baa4fe682c70ab4ede9,21:05.0,Running,42.326341,-71.121962,11217.262,230,2445
959,d73137042f4d1e9fe39bed63f3e74be5,02:44.4,Running,42.382624,-71.071776,6781.656618,55,2129
960,b213d76e92357ddb587d5366f311293d,08:32.2,Running,42.35194,-71.070739,9140.483027,64,2116
961,1b778e978063d07dd63cabe3ed0980ef,49:10.8,Running,42.36241,-71.051146,22590.74512,449,2110
962,ce4b6d9cacbaeb4c45bd585768309e61,50:29.8,Running,42.34966,-71.04899,11381.96193,125,2210
963,5a1a463e5f151c68858fb9966076292f,01:36.7,Running,42.35088,-71.2137,25120.28721,231,2460
964,12eab53b4b2715f6029952d20161b68a,18:44.9,Running,42.358799,-71.067742,5125.068171,19,2108
965,78f9ccacc8ccd0b6e30c697bf9e0fa75,06:15.7,Running,42.23683,-71.099068,6770.790989,79,2186
966,a5e14d87145b0c36f16f8cf14106e9e7,56:35.5,Running,42.284793,-71.133412,13268.7372,55,2131
967,44120f86c4bc186887390cf8c2b5e8c7,25:05.9,Running,42.35616,-71.14907,3297.868439,31,2135
968,83c6e77caf8da6ed497e07c1e3412cd4,38:02.1,Running,42.382683,-71.119615,5843.39427,46,2138
969,0bc58863ba591a01420defac1d5aaa1a,23:19.5,Running,42.356079,-71.114326,6663.647762,27,2139
970,bd8dedaf7b771447e91ff4b18b2ba829,26:14.6,Running,42.356412,-71.114306,8587.269943,34,2139
971,407ab350c4d0f468d04efad51573f7de,20:07.4,Running,42.35154,-71.05028,11253.00518,159,2210
972,156a9bbca1723799ad3c63d85ad47179,34:13.6,Running,42.35154,-71.050279,11252.85854,159,2210
973,ada6d87e1ea71a7fa16ebcfc5da7f236,37:53.6,Running,42.333768,-71.112436,6499.022062,79,2445
974,a0c15d5fff5d792f0b5885b023b7e8c1,34:04.4,Running,42.34385,-71.06769,3679.122781,66,2118
975,a43961dccf19de82b60884145468d520,26:30.6,Running,42.364379,-71.069499,9987.211095,462,2114
976,572430feb666f45d746ffe654ae7a78f,12:03.3,Running,42.339312,-71.080171,16741.70118,219,2118
977,653d73a5eec0d0fdec0341f7997e1a4b,45:14.5,Running,42.385531,-71.103665,4896.914128,69,2143
978,b492a385ceaee9e4d90a3dfc633752b2,58:53.1,Running,42.34787,-71.12105,8159.573958,86,2446
979,eb00938466e7091b09ac4b1d28a0c278,02:56.2,Running,42.34339,-71.12329,8753.260928,106,2446
980,51891154b8471ec3337986601aaa673b,05:05.2,Running,42.341242,-71.125628,10193.39785,130,2446
981,ef0783a7500f2b55fbbfdd886c9338cf,08:40.2,Running,42.34316,-71.11809,16321.39142,350,2446
982,00a00c1fa29f05a0880e858c9b615a21,45:14.8,Running,42.33221,-71.1145,2523.184712,28,2445
983,7e239c2e7c7077b3c1dc0cb9eb2a72b6,56:06.3,Running,42.380114,-71.089987,5605.708424,480,2143
984,bb1b31ecb58d6dbe629829339ab8e87f,42:29.2,Running,42.33667,-71.15041,3805.093089,102,2135
985,5555b5879f20c51c796410b7bc01f380,12:50.0,Running,42.369936,-71.187241,5091.023883,34,2472
986,ed99fb2f92284e4c277218de6997aeaf,43:50.1,Running,42.364698,-71.061813,1023.380977,74,2114
987,450002fef0e7ddf72dcf5acaa4498d0a,49:56.5,Running,42.35186,-71.07084,5107.926255,56,2116
988,a29ccae6534e42faa17f0906dd02995a,34:32.4,Running,42.329316,-71.03522,6002.408666,39,2127
989,30dbbc99d390ecf1f5bb8370f1a96f98,16:10.0,Running,42.34725,-71.07352,7744.221468,150,2116
990,0f1845ba70d9e2b80bf8cf3c112e00b4,38:33.7,Running,42.34457,-71.07051,7821.487847,162,2118
991,29007d8f8e18efba868ae65218b564bc,42:09.0,Running,42.34411,-71.06726,8187.933035,148,2118
992,99cc406da5033b70e3e88b266f9e84ec,39:32.6,Running,42.354662,-71.052261,2930.647445,43,2110
993,934a8937ad01cdaa3eaeb26273f1d868,27:55.5,Running,42.36332,-71.051519,16636.1683,291,2109
994,de0b4e55f13af7cb6bfa6af7ad325785,01:00.7,Running,42.354758,-71.11047,13119.8917,243,2139
995,d4a7ea96540800ab3509a9553fbc0f43,48:15.7,Running,42.32981,-71.194849,12512.10979,150,2459
996,66240d3a64c30c6d6f8bb625222f79ea,03:58.8,Running,42.337108,-71.09085,2489.741466,43,2115
997,1cd1f05a3133d57af68f881d5181a54d,24:18.6,Cycling,42.402267,-71.13797,8198.383292,483,2474
998,107c52d95e540eea34c3fc9329f42849,09:19.7,Running,42.367706,-71.118539,8522.440919,20,2163
999,db8d9d4a1ad6c468b22853a81ccca075,29:23.1,Running,42.329363,-71.035176,6270.995753,62,2127
1000,9faadcbd5f08261a0efebba91bd43a67,10:18.4,Running,42.346584,-71.089824,928.4611278,13,2115
